{
"type": "FeatureCollection",
"crs": { "type": "name", "properties": { "name": "urn:ogc:def:crs:EPSG::3857" } },
"features": [
{ "type": "Feature", "properties": { "PKID": 1492, "phone_number": 8103017213, "area_code": "THCbxqx", "name": "Le Friedland" }, "geometry": { "type": "Point", "coordinates": [ 259379.595337595237652, 6250936.582786456681788 ] } },
{ "type": "Feature", "properties": { "PKID": 1447, "phone_number": 3318026134, "area_code": "KJyHhTg", "name": "Malesherbes Hotel" }, "geometry": { "type": "Point", "coordinates": [ 259751.399278712022351, 6250404.353853015229106 ] } },
{ "type": "Feature", "properties": { "PKID": 829, "phone_number": 1047324163, "area_code": "BraUNWJ", "name": "Hotel Saint-Germain" }, "geometry": { "type": "Point", "coordinates": [ 262874.945829439791851, 6249610.908327023498714 ] } },
{ "type": "Feature", "properties": { "PKID": 1054, "phone_number": 2550609392, "area_code": "4OSjXcR", "name": "Le Tsula" }, "geometry": { "type": "Point", "coordinates": [ 257509.137691489653662, 6246076.839353804476559 ] } },
{ "type": "Feature", "properties": { "PKID": 210, "phone_number": 5925537920, "area_code": "8qJmdMV", "name": "Au royal mad" }, "geometry": { "type": "Point", "coordinates": [ 260311.75582059379667, 6249595.390354135073721 ] } },
{ "type": "Feature", "properties": { "PKID": 1373, "phone_number": 7603455955, "area_code": "Z8joTI8", "name": "Regina" }, "geometry": { "type": "Point", "coordinates": [ 264878.909660276141949, 6253673.832931222394109 ] } },
{ "type": "Feature", "properties": { "PKID": 1370, "phone_number": 8406662346, "area_code": "Lo1KFN2", "name": "Hotel Fertel Maillot" }, "geometry": { "type": "Point", "coordinates": [ 267654.413762563199271, 6253740.652861314825714 ] } },
{ "type": "Feature", "properties": { "PKID": 1542, "phone_number": 5976947356, "area_code": "FXZCEEo", "name": "Hotel Paris Rivoli" }, "geometry": { "type": "Point", "coordinates": [ 262079.430978867923841, 6244759.310378532856703 ] } },
{ "type": "Feature", "properties": { "PKID": 689, "phone_number": 9500870977, "area_code": "bFIlaNs", "name": "Hotel Dress Code" }, "geometry": { "type": "Point", "coordinates": [ 259089.815102720691357, 6250242.79945367295295 ] } },
{ "type": "Feature", "properties": { "PKID": 924, "phone_number": 3640912120, "area_code": "fWgmw2r", "name": "Hotel Pilime" }, "geometry": { "type": "Point", "coordinates": [ 264943.167193140368909, 6247673.811925132758915 ] } },
{ "type": "Feature", "properties": { "PKID": 841, "phone_number": 5769804830, "area_code": "rkOEItc", "name": "Grand Hotel du Havre" }, "geometry": { "type": "Point", "coordinates": [ 259759.167742155084852, 6248654.681793859228492 ] } },
{ "type": "Feature", "properties": { "PKID": 1343, "phone_number": 6876557377, "area_code": "jsmBCXO", "name": "Le 123 Elysees" }, "geometry": { "type": "Point", "coordinates": [ 266441.078558952955063, 6253811.237247631885111 ] } },
{ "type": "Feature", "properties": { "PKID": 271, "phone_number": 6920952621, "area_code": "l0PaSGw", "name": "Hotel de la Tour Eiffel" }, "geometry": { "type": "Point", "coordinates": [ 261386.549490678240545, 6251558.919668562710285 ] } },
{ "type": "Feature", "properties": { "PKID": 1006, "phone_number": 4348661504, "area_code": "zDQzcgW", "name": "Home Moderne" }, "geometry": { "type": "Point", "coordinates": [ 271718.150064811867196, 6247141.501962874084711 ] } },
{ "type": "Feature", "properties": { "PKID": 760, "phone_number": 8540760825, "area_code": "293Olzv", "name": "Hotel Odeon Saint-Germain" }, "geometry": { "type": "Point", "coordinates": [ 261805.197024719323963, 6256780.333255298435688 ] } },
{ "type": "Feature", "properties": { "PKID": 36, "phone_number": 3580189742, "area_code": "Jk4vsJ3", "name": "Relais Christine" }, "geometry": { "type": "Point", "coordinates": [ 260475.089272647193866, 6250615.908906536176801 ] } },
{ "type": "Feature", "properties": { "PKID": 488, "phone_number": 5614359051, "area_code": "u2jPDA8", "name": "Le Petit Chomel" }, "geometry": { "type": "Point", "coordinates": [ 262331.056407201569527, 6252395.108991993591189 ] } },
{ "type": "Feature", "properties": { "PKID": 839, "phone_number": 6446382207, "area_code": "nckQGDi", "name": "Les 3 Poussins" }, "geometry": { "type": "Point", "coordinates": [ 262507.030676410708111, 6248775.836663762107491 ] } },
{ "type": "Feature", "properties": { "PKID": 260, "phone_number": 5618502125, "area_code": "aiHzx5j", "name": "Hotel d'Angleterre" }, "geometry": { "type": "Point", "coordinates": [ 261943.355483629216906, 6250977.683758802711964 ] } },
{ "type": "Feature", "properties": { "PKID": 1558, "phone_number": 9200193669, "area_code": "8Ki3GBC", "name": "Hotel Monceau Elysees" }, "geometry": { "type": "Point", "coordinates": [ 262411.741270194295794, 6255689.760782348923385 ] } },
{ "type": "Feature", "properties": { "PKID": 797, "phone_number": 5204048065, "area_code": "KriP7lJ", "name": "Le Temple de Jeanne" }, "geometry": { "type": "Point", "coordinates": [ 262249.619734704960138, 6251152.563943056389689 ] } },
{ "type": "Feature", "properties": { "PKID": 378, "phone_number": 4142518126, "area_code": "7ekAtS2", "name": "Hotel du Jardin des Plantes" }, "geometry": { "type": "Point", "coordinates": [ 262850.978074090671726, 6247160.525348644703627 ] } },
{ "type": "Feature", "properties": { "PKID": 1167, "phone_number": 9090508447, "area_code": "IXgc8Ub", "name": "Alane Hotel" }, "geometry": { "type": "Point", "coordinates": [ 258824.405686529324157, 6255882.731579397805035 ] } },
{ "type": "Feature", "properties": { "PKID": 304, "phone_number": 4344912251, "area_code": "JAW5cBR", "name": "Oasis Montparnasse" }, "geometry": { "type": "Point", "coordinates": [ 260035.196270907268627, 6251578.561287527903914 ] } },
{ "type": "Feature", "properties": { "PKID": 1104, "phone_number": 4913855318, "area_code": "RClld1q", "name": "Color Design Hotel" }, "geometry": { "type": "Point", "coordinates": [ 254212.041022098448593, 6252850.365929736755788 ] } },
{ "type": "Feature", "properties": { "PKID": 857, "phone_number": 1688144985, "area_code": "iAP3Wpb", "name": "Hotel de la Paix" }, "geometry": { "type": "Point", "coordinates": [ 261228.117799066007137, 6247437.543694117106497 ] } },
{ "type": "Feature", "properties": { "PKID": 1189, "phone_number": 9861303349, "area_code": "5wUngtC", "name": "Paris Reuilly - Aparthotels Adagio" }, "geometry": { "type": "Point", "coordinates": [ 254917.845435750321485, 6248205.303848064504564 ] } },
{ "type": "Feature", "properties": { "PKID": 232, "phone_number": 8020444979, "area_code": "NRf4p98", "name": "Hotel Eden Opera" }, "geometry": { "type": "Point", "coordinates": [ 262123.088533228990855, 6250617.179856890812516 ] } },
{ "type": "Feature", "properties": { "PKID": 256, "phone_number": 1761473637, "area_code": "WeAg0MS", "name": "Hotel Cluny-Sorbonne" }, "geometry": { "type": "Point", "coordinates": [ 260427.520808145578485, 6251251.026703158393502 ] } },
{ "type": "Feature", "properties": { "PKID": 1062, "phone_number": 4736336598, "area_code": "aATOXzF", "name": "Bloum" }, "geometry": { "type": "Point", "coordinates": [ 258991.692490140354494, 6246519.190581039525568 ] } },
{ "type": "Feature", "properties": { "PKID": 97, "phone_number": 4291971944, "area_code": "Ncldvh0", "name": "Hotel Gerando" }, "geometry": { "type": "Point", "coordinates": [ 261542.309554442268563, 6251809.581818706355989 ] } },
{ "type": "Feature", "properties": { "PKID": 1460, "phone_number": 7615065166, "area_code": "bkEl5xz", "name": "Crayon" }, "geometry": { "type": "Point", "coordinates": [ 259488.691587230336154, 6250895.823695810511708 ] } },
{ "type": "Feature", "properties": { "PKID": 564, "phone_number": 9567371131, "area_code": "zo0efub", "name": "Hotel Fertel Étoile" }, "geometry": { "type": "Point", "coordinates": [ 262275.47019700484816, 6252640.221364389173687 ] } },
{ "type": "Feature", "properties": { "PKID": 672, "phone_number": 8562169871, "area_code": "EKcEKgw", "name": "Saint-Sebastien" }, "geometry": { "type": "Point", "coordinates": [ 260197.454851366172079, 6252339.578817290253937 ] } },
{ "type": "Feature", "properties": { "PKID": 64, "phone_number": 1052133868, "area_code": "NBbUpwc", "name": "The Peninsula Paris" }, "geometry": { "type": "Point", "coordinates": [ 261251.668325442791684, 6250418.561108069494367 ] } },
{ "type": "Feature", "properties": { "PKID": 1385, "phone_number": 3570198967, "area_code": "IzKRz7r", "name": "Best Western Premier Le Swann" }, "geometry": { "type": "Point", "coordinates": [ 267542.067507333355024, 6253439.886403081938624 ] } },
{ "type": "Feature", "properties": { "PKID": 182, "phone_number": 8330413220, "area_code": "cjDlpMv", "name": "Best Western Quartier Latin" }, "geometry": { "type": "Point", "coordinates": [ 259917.319684227579273, 6248826.184076599776745 ] } },
{ "type": "Feature", "properties": { "PKID": 919, "phone_number": 5327542001, "area_code": "4xC0sUN", "name": "Hotel Riquet" }, "geometry": { "type": "Point", "coordinates": [ 262745.340986463648733, 6246434.953724407590926 ] } },
{ "type": "Feature", "properties": { "PKID": 977, "phone_number": 2504017100, "area_code": "HWHC8D6", "name": "Hotel Trianon" }, "geometry": { "type": "Point", "coordinates": [ 272500.418262802180834, 6246328.903708114288747 ] } },
{ "type": "Feature", "properties": { "PKID": 13, "phone_number": 4290838594, "area_code": "F8VNUgl", "name": "Amadeus" }, "geometry": { "type": "Point", "coordinates": [ 260905.717078038549516, 6250900.309956768527627 ] } },
{ "type": "Feature", "properties": { "PKID": 324, "phone_number": 7854835366, "area_code": "rG8PG4U", "name": "Appart'City" }, "geometry": { "type": "Point", "coordinates": [ 262135.046884042734746, 6252256.513028301298618 ] } },
{ "type": "Feature", "properties": { "PKID": 1012, "phone_number": 1484627474, "area_code": "wdYNxwx", "name": "Antin Trinite" }, "geometry": { "type": "Point", "coordinates": [ 273638.382821036793757, 6247072.666045773774385 ] } },
{ "type": "Feature", "properties": { "PKID": 1232, "phone_number": 8776404210, "area_code": "LhqJCX5", "name": "Mercure Paris Opera Lafayette Hotel" }, "geometry": { "type": "Point", "coordinates": [ 250419.731147721468005, 6250461.03593030385673 ] } },
{ "type": "Feature", "properties": { "PKID": 1521, "phone_number": 8615164211, "area_code": "JAP0Czw", "name": "Hotel Barrière Le Fouquet's" }, "geometry": { "type": "Point", "coordinates": [ 262814.10076703078812, 6245675.444142010062933 ] } },
{ "type": "Feature", "properties": { "PKID": 845, "phone_number": 3963712840, "area_code": "rpuqcvB", "name": "Le Petit Madeleine" }, "geometry": { "type": "Point", "coordinates": [ 259677.909781296621077, 6248859.536603701300919 ] } },
{ "type": "Feature", "properties": { "PKID": 645, "phone_number": 5964380784, "area_code": "0mg1Tvv", "name": "Maitre Albert B&B" }, "geometry": { "type": "Point", "coordinates": [ 261656.892918803787325, 6249253.126477578654885 ] } },
{ "type": "Feature", "properties": { "PKID": 94, "phone_number": 9251046089, "area_code": "R6LGMme", "name": "Hollmann in Paris" }, "geometry": { "type": "Point", "coordinates": [ 260268.846661337884143, 6251185.210600849241018 ] } },
{ "type": "Feature", "properties": { "PKID": 1099, "phone_number": 8726636709, "area_code": "4nA9qoW", "name": "Hotel Chabrol Opera" }, "geometry": { "type": "Point", "coordinates": [ 255161.480439102597302, 6251670.603347106836736 ] } },
{ "type": "Feature", "properties": { "PKID": 282, "phone_number": 7252017495, "area_code": "kQQNpft", "name": "Le Patio Bastille" }, "geometry": { "type": "Point", "coordinates": [ 261373.420984528871486, 6247845.82964716758579 ] } },
{ "type": "Feature", "properties": { "PKID": 1051, "phone_number": 8809815582, "area_code": "HaShEbH", "name": "Mayet" }, "geometry": { "type": "Point", "coordinates": [ 258485.078159124415834, 6246597.118776766583323 ] } },
{ "type": "Feature", "properties": { "PKID": 384, "phone_number": 1440480200, "area_code": "vcxfCgV", "name": "Grand Hotel du Bel Air" }, "geometry": { "type": "Point", "coordinates": [ 262048.772523019113578, 6250735.941460387781262 ] } },
{ "type": "Feature", "properties": { "PKID": 1227, "phone_number": 2454637203, "area_code": "kZNByLq", "name": "Porte Vincennes" }, "geometry": { "type": "Point", "coordinates": [ 252986.371888361056335, 6247112.979436751455069 ] } },
{ "type": "Feature", "properties": { "PKID": 1107, "phone_number": 6877142661, "area_code": "StYcykq", "name": "Archetype" }, "geometry": { "type": "Point", "coordinates": [ 253714.413077075878391, 6251552.981791440397501 ] } },
{ "type": "Feature", "properties": { "PKID": 1353, "phone_number": 4602742201, "area_code": "0FN5nj7", "name": "vice versa" }, "geometry": { "type": "Point", "coordinates": [ 266358.221964189899154, 6254364.492344097234309 ] } },
{ "type": "Feature", "properties": { "PKID": 816, "phone_number": 9542923400, "area_code": "nbk5BZW", "name": "Hotel Scribe" }, "geometry": { "type": "Point", "coordinates": [ 260990.709182139660697, 6250427.120644367299974 ] } },
{ "type": "Feature", "properties": { "PKID": 1393, "phone_number": 9455120182, "area_code": "j8LnFkT", "name": "Paris Bruxelles" }, "geometry": { "type": "Point", "coordinates": [ 267916.214652397029568, 6247621.667815892025828 ] } },
{ "type": "Feature", "properties": { "PKID": 52, "phone_number": 1382137097, "area_code": "BYY9fTF", "name": "Hotel Grand Amour" }, "geometry": { "type": "Point", "coordinates": [ 261050.753899533243384, 6250162.630506143905222 ] } },
{ "type": "Feature", "properties": { "PKID": 1431, "phone_number": 3130270919, "area_code": "5pMMpRH", "name": "Hotel de l'Europe" }, "geometry": { "type": "Point", "coordinates": [ 266864.049201031040866, 6246568.44256538990885 ] } },
{ "type": "Feature", "properties": { "PKID": 1148, "phone_number": 1669925347, "area_code": "bXbNeNt", "name": "Hotel Powers" }, "geometry": { "type": "Point", "coordinates": [ 258902.877643608750077, 6255491.602394917979836 ] } },
{ "type": "Feature", "properties": { "PKID": 703, "phone_number": 2793804866, "area_code": "G7kscq4", "name": "Hotel La Tour d'Auvergne" }, "geometry": { "type": "Point", "coordinates": [ 259257.769446668651653, 6251698.316851223818958 ] } },
{ "type": "Feature", "properties": { "PKID": 854, "phone_number": 2394710889, "area_code": "dRxwCN4", "name": "Hotel de Pourtalès" }, "geometry": { "type": "Point", "coordinates": [ 263630.288662877632305, 6249863.26118843536824 ] } },
{ "type": "Feature", "properties": { "PKID": 295, "phone_number": 7258699157, "area_code": "zqx2876", "name": "Hotel Aix Europe" }, "geometry": { "type": "Point", "coordinates": [ 261415.874189948634012, 6248401.098978127352893 ] } },
{ "type": "Feature", "properties": { "PKID": 15, "phone_number": 8799364676, "area_code": "qhXxCzo", "name": "Grand Hotel des Voyageurs" }, "geometry": { "type": "Point", "coordinates": [ 260167.696307739999611, 6250648.853660488501191 ] } },
{ "type": "Feature", "properties": { "PKID": 536, "phone_number": 9721420264, "area_code": "mlgbnUn", "name": "Hotel du Prince Eugène" }, "geometry": { "type": "Point", "coordinates": [ 262493.559109059802722, 6248215.59813273139298 ] } },
{ "type": "Feature", "properties": { "PKID": 171, "phone_number": 9997809948, "area_code": "1n2cUDb", "name": "Victoire & Germain" }, "geometry": { "type": "Point", "coordinates": [ 260995.858714552770834, 6252097.927797332406044 ] } },
{ "type": "Feature", "properties": { "PKID": 1014, "phone_number": 4838251470, "area_code": "hTEapmA", "name": "Celeste" }, "geometry": { "type": "Point", "coordinates": [ 258488.0289963138639, 6246084.693824235349894 ] } },
{ "type": "Feature", "properties": { "PKID": 338, "phone_number": 5601614972, "area_code": "Mi4vAty", "name": "Hotel du Pont Neuf" }, "geometry": { "type": "Point", "coordinates": [ 261412.70091379902442, 6248392.525289247743785 ] } },
{ "type": "Feature", "properties": { "PKID": 229, "phone_number": 8949831787, "area_code": "m1LA3Zf", "name": "Hotel Duret" }, "geometry": { "type": "Point", "coordinates": [ 260188.965079904621234, 6249903.206037259660661 ] } },
{ "type": "Feature", "properties": { "PKID": 1076, "phone_number": 6833257803, "area_code": "9eIUSLW", "name": "Le M. Saint-Germain" }, "geometry": { "type": "Point", "coordinates": [ 254939.505479012615979, 6252960.34077600762248 ] } },
{ "type": "Feature", "properties": { "PKID": 1414, "phone_number": 2480662006, "area_code": "bI6ix3t", "name": "Hotel de la Gaite" }, "geometry": { "type": "Point", "coordinates": [ 267589.992799465369899, 6247450.457450469024479 ] } },
{ "type": "Feature", "properties": { "PKID": 1295, "phone_number": 3798044317, "area_code": "FyQ4MpC", "name": "Le Relais Medici" }, "geometry": { "type": "Point", "coordinates": [ 263598.844973916595336, 6249880.351556846871972 ] } },
{ "type": "Feature", "properties": { "PKID": 1073, "phone_number": 9387165988, "area_code": "2BDqCBm", "name": "Hotel L'Horset Opera" }, "geometry": { "type": "Point", "coordinates": [ 254600.49714402059908, 6251977.585388472303748 ] } },
{ "type": "Feature", "properties": { "PKID": 115, "phone_number": 8309085850, "area_code": "KQEmjf9", "name": "Grand Hotel Chicago" }, "geometry": { "type": "Point", "coordinates": [ 260312.288984984857962, 6250776.827294561080635 ] } },
{ "type": "Feature", "properties": { "PKID": 880, "phone_number": 7290887396, "area_code": "jQaWiQY", "name": "Bel Oranger" }, "geometry": { "type": "Point", "coordinates": [ 262881.837681374920066, 6253926.518314552493393 ] } },
{ "type": "Feature", "properties": { "PKID": 28, "phone_number": 4384258043, "area_code": "CHMQPXq", "name": "Le Pont-Neuf" }, "geometry": { "type": "Point", "coordinates": [ 260391.981182406976586, 6250224.406882899813354 ] } },
{ "type": "Feature", "properties": { "PKID": 994, "phone_number": 3853958175, "area_code": "AwAvTqj", "name": "Hotel Sunny" }, "geometry": { "type": "Point", "coordinates": [ 271293.252991029818077, 6246705.562645154073834 ] } },
{ "type": "Feature", "properties": { "PKID": 281, "phone_number": 1617195156, "area_code": "4fNWBw5", "name": "Hotel Alexandrie" }, "geometry": { "type": "Point", "coordinates": [ 260765.11378189388779, 6250031.716793699190021 ] } },
{ "type": "Feature", "properties": { "PKID": 962, "phone_number": 2227374071, "area_code": "ApSyi65", "name": "Le General Hotel" }, "geometry": { "type": "Point", "coordinates": [ 272003.742344846366905, 6245916.506980835460126 ] } },
{ "type": "Feature", "properties": { "PKID": 718, "phone_number": 3034222346, "area_code": "Bs6184G", "name": "Hotel de France" }, "geometry": { "type": "Point", "coordinates": [ 259918.184047098882729, 6254052.240259222686291 ] } },
{ "type": "Feature", "properties": { "PKID": 617, "phone_number": 2083698142, "area_code": "zbgsaYP", "name": "Hotel de Belfort" }, "geometry": { "type": "Point", "coordinates": [ 261757.311490951105952, 6249741.558707570657134 ] } },
{ "type": "Feature", "properties": { "PKID": 1, "phone_number": 8997896750, "area_code": "cqhzKsZ", "name": "La Lanterne" }, "geometry": { "type": "Point", "coordinates": [ 261552.711737122124759, 6250846.928576089441776 ] } },
{ "type": "Feature", "properties": { "PKID": 1403, "phone_number": 2757912522, "area_code": "qoQiRYx", "name": "Lena" }, "geometry": { "type": "Point", "coordinates": [ 267121.187322776007932, 6248398.9983404064551 ] } },
{ "type": "Feature", "properties": { "PKID": 879, "phone_number": 2990085642, "area_code": "PB39N9f", "name": "Hotel des Bains" }, "geometry": { "type": "Point", "coordinates": [ 262450.793968947371468, 6248426.899779969826341 ] } },
{ "type": "Feature", "properties": { "PKID": 930, "phone_number": 4295882971, "area_code": "AQnQ2Hg", "name": "Hotel Median Paris Porte de Versailles" }, "geometry": { "type": "Point", "coordinates": [ 258486.327039810101269, 6252127.372333613224328 ] } },
{ "type": "Feature", "properties": { "PKID": 1319, "phone_number": 2004780482, "area_code": "gIFe2Aw", "name": "Hotel Phileas" }, "geometry": { "type": "Point", "coordinates": [ 264273.247934865881689, 6249434.329204473644495 ] } },
{ "type": "Feature", "properties": { "PKID": 492, "phone_number": 2740289707, "area_code": "Fzm2Rpx", "name": "Les Jardins de la Villa" }, "geometry": { "type": "Point", "coordinates": [ 260443.601624471717514, 6247729.121357131749392 ] } },
{ "type": "Feature", "properties": { "PKID": 350, "phone_number": 7529601495, "area_code": "JnAeFSO", "name": "Paris Art Hotel" }, "geometry": { "type": "Point", "coordinates": [ 259314.524852233298589, 6252571.227034086361527 ] } },
{ "type": "Feature", "properties": { "PKID": 215, "phone_number": 5268034053, "area_code": "Su5vMHv", "name": "Hotel des Victoires" }, "geometry": { "type": "Point", "coordinates": [ 260723.881819445668953, 6251406.044643281027675 ] } },
{ "type": "Feature", "properties": { "PKID": 347, "phone_number": 1162716092, "area_code": "pFhGAkQ", "name": "Convention Montparnasse" }, "geometry": { "type": "Point", "coordinates": [ 260464.510940070380457, 6253164.29745935741812 ] } },
{ "type": "Feature", "properties": { "PKID": 615, "phone_number": 1371642987, "area_code": "V6ISheh", "name": "Grand Hotel Saint-Michel" }, "geometry": { "type": "Point", "coordinates": [ 261030.434462870995048, 6251976.510935604572296 ] } },
{ "type": "Feature", "properties": { "PKID": 316, "phone_number": 4235291830, "area_code": "sVN1siA", "name": "Hotel Lecourbe" }, "geometry": { "type": "Point", "coordinates": [ 259795.104167207842693, 6248339.412067716009915 ] } },
{ "type": "Feature", "properties": { "PKID": 810, "phone_number": 1233586985, "area_code": "eIyzIMc", "name": "L'Interlude" }, "geometry": { "type": "Point", "coordinates": [ 263309.599896825326141, 6250315.602504854090512 ] } },
{ "type": "Feature", "properties": { "PKID": 385, "phone_number": 6167214814, "area_code": "ODRZnvd", "name": "Hotel Imperial" }, "geometry": { "type": "Point", "coordinates": [ 261966.909314500080654, 6249863.926265405490994 ] } },
{ "type": "Feature", "properties": { "PKID": 756, "phone_number": 5915707868, "area_code": "C2Ax5pf", "name": "La belle Juliette" }, "geometry": { "type": "Point", "coordinates": [ 262315.290689811459742, 6247394.475626422092319 ] } },
{ "type": "Feature", "properties": { "PKID": 29, "phone_number": 9872762334, "area_code": "6m2tlw4", "name": "Hotel du Jardin des Plantes" }, "geometry": { "type": "Point", "coordinates": [ 261262.19625828077551, 6250894.779888544231653 ] } },
{ "type": "Feature", "properties": { "PKID": 1389, "phone_number": 2951033261, "area_code": "sM4J2k1", "name": "Petit Palace Hotel" }, "geometry": { "type": "Point", "coordinates": [ 267046.251929953985382, 6255907.882439278066158 ] } },
{ "type": "Feature", "properties": { "PKID": 1465, "phone_number": 2335046567, "area_code": "6j6HmvA", "name": "Hotel Château Frontenac" }, "geometry": { "type": "Point", "coordinates": [ 259092.285061914502876, 6250367.191041516140103 ] } },
{ "type": "Feature", "properties": { "PKID": 1556, "phone_number": 2114123604, "area_code": "qHIsuxq", "name": "Novotel Paris Bercy" }, "geometry": { "type": "Point", "coordinates": [ 262708.507283880491741, 6256281.56055654771626 ] } },
{ "type": "Feature", "properties": { "PKID": 1366, "phone_number": 1460817772, "area_code": "3WUw44d", "name": "Grand Hotel de Malte Opera - Astotel" }, "geometry": { "type": "Point", "coordinates": [ 267341.326999978569802, 6253723.340520408004522 ] } },
{ "type": "Feature", "properties": { "PKID": 42, "phone_number": 4203830392, "area_code": "9LINMcc", "name": "Hotel Canal Saint-Martin" }, "geometry": { "type": "Point", "coordinates": [ 260434.717718228726881, 6251078.451904679648578 ] } },
{ "type": "Feature", "properties": { "PKID": 1419, "phone_number": 1491967727, "area_code": "UuT1w9z", "name": "Hotel Virgina" }, "geometry": { "type": "Point", "coordinates": [ 267677.096427560318261, 6247257.360271483659744 ] } },
{ "type": "Feature", "properties": { "PKID": 530, "phone_number": 7031524602, "area_code": "oaSXf1q", "name": "Ibis Paris Grands Boulevards Opera" }, "geometry": { "type": "Point", "coordinates": [ 262193.742408237420022, 6251794.83592245541513 ] } },
{ "type": "Feature", "properties": { "PKID": 124, "phone_number": 5373479988, "area_code": "aeY903P", "name": "Classics Hotel" }, "geometry": { "type": "Point", "coordinates": [ 261185.402275420841761, 6250265.833375861868262 ] } },
{ "type": "Feature", "properties": { "PKID": 1288, "phone_number": 6490397649, "area_code": "iWaWztY", "name": "Quai Voltaire" }, "geometry": { "type": "Point", "coordinates": [ 263839.446624933101702, 6250641.950314981862903 ] } },
{ "type": "Feature", "properties": { "PKID": 1094, "phone_number": 1390031462, "area_code": "U40Lr1V", "name": "Timhotel Best Western Tour Eiffel Invalides" }, "geometry": { "type": "Point", "coordinates": [ 254719.62850554662873, 6251257.634707818739116 ] } },
{ "type": "Feature", "properties": { "PKID": 1566, "phone_number": 5241057372, "area_code": "hlStkJz", "name": "Platine" }, "geometry": { "type": "Point", "coordinates": [ 262680.433080390794203, 6255573.324236551299691 ] } },
{ "type": "Feature", "properties": { "PKID": 1405, "phone_number": 3223561753, "area_code": "H0feOW3", "name": "La nouvelle Republique" }, "geometry": { "type": "Point", "coordinates": [ 267022.319987286173273, 6247642.59954658895731 ] } },
{ "type": "Feature", "properties": { "PKID": 1562, "phone_number": 5967125566, "area_code": "o312xuF", "name": "Hotel de la Perdrix Rouge" }, "geometry": { "type": "Point", "coordinates": [ 262463.580584605340846, 6255447.125965917482972 ] } },
{ "type": "Feature", "properties": { "PKID": 172, "phone_number": 4392735401, "area_code": "wMSJJTZ", "name": "Hotel La Comtesse by Elegancia" }, "geometry": { "type": "Point", "coordinates": [ 260760.669678939535515, 6249617.107832892797887 ] } },
{ "type": "Feature", "properties": { "PKID": 1037, "phone_number": 2709914269, "area_code": "sQNhBFv", "name": "Hotel Delavigne" }, "geometry": { "type": "Point", "coordinates": [ 258195.407675967580872, 6246663.279119580052793 ] } },
{ "type": "Feature", "properties": { "PKID": 1092, "phone_number": 6250288673, "area_code": "ctp93I8", "name": "Hotel Levert" }, "geometry": { "type": "Point", "coordinates": [ 254901.26051704477868, 6253013.987413657829165 ] } },
{ "type": "Feature", "properties": { "PKID": 1428, "phone_number": 5000010740, "area_code": "u6hyhCp", "name": "Hotel Metropolitain" }, "geometry": { "type": "Point", "coordinates": [ 266900.866100955347065, 6248060.296402997337282 ] } },
{ "type": "Feature", "properties": { "PKID": 272, "phone_number": 9276913912, "area_code": "gjHPP1p", "name": "Platine" }, "geometry": { "type": "Point", "coordinates": [ 262027.846309587795986, 6250547.865361546166241 ] } },
{ "type": "Feature", "properties": { "PKID": 1102, "phone_number": 9249302285, "area_code": "h4ko9Tq", "name": "Hotel Saint-Charles" }, "geometry": { "type": "Point", "coordinates": [ 254232.750779288064223, 6251923.295322032645345 ] } },
{ "type": "Feature", "properties": { "PKID": 1565, "phone_number": 8292547034, "area_code": "UoLvVok", "name": "Hotel de la Perdrix Rouge" }, "geometry": { "type": "Point", "coordinates": [ 262600.294780328928027, 6255492.264849408529699 ] } },
{ "type": "Feature", "properties": { "PKID": 763, "phone_number": 9734034875, "area_code": "phqHjY0", "name": "Hotel Montmartre Clignancourt" }, "geometry": { "type": "Point", "coordinates": [ 261784.381119474797742, 6256470.894036990590394 ] } },
{ "type": "Feature", "properties": { "PKID": 1587, "phone_number": 4646542612, "area_code": "SdwsWkb", "name": "Snob Hotel by Elegancia" }, "geometry": { "type": "Point", "coordinates": [ 262719.628009046602529, 6257017.629359791055322 ] } },
{ "type": "Feature", "properties": { "PKID": 776, "phone_number": 6519331651, "area_code": "AygDIEM", "name": "Nouvel Hotel" }, "geometry": { "type": "Point", "coordinates": [ 260311.967716484679841, 6250292.47524113766849 ] } },
{ "type": "Feature", "properties": { "PKID": 891, "phone_number": 7409622383, "area_code": "Tz6VSAs", "name": "Hotel Saint-Cyr Étoile" }, "geometry": { "type": "Point", "coordinates": [ 264613.24228533077985, 6250664.175454219803214 ] } },
{ "type": "Feature", "properties": { "PKID": 1362, "phone_number": 4973789531, "area_code": "SnYGfg1", "name": "Hotel Sunny" }, "geometry": { "type": "Point", "coordinates": [ 266121.95326361770276, 6253385.803750237450004 ] } },
{ "type": "Feature", "properties": { "PKID": 1576, "phone_number": 6886711229, "area_code": "aXL7CC0", "name": "Hotel de la Paix" }, "geometry": { "type": "Point", "coordinates": [ 262163.066015578340739, 6256065.294347274117172 ] } },
{ "type": "Feature", "properties": { "PKID": 365, "phone_number": 9675781290, "area_code": "wkFbjGo", "name": "Le Pradey" }, "geometry": { "type": "Point", "coordinates": [ 261465.992043025413295, 6253703.360986008308828 ] } },
{ "type": "Feature", "properties": { "PKID": 1441, "phone_number": 1288007653, "area_code": "j8PTkm3", "name": "Bonsoir Madame" }, "geometry": { "type": "Point", "coordinates": [ 267482.049886369379237, 6248542.585395010188222 ] } },
{ "type": "Feature", "properties": { "PKID": 465, "phone_number": 8604813860, "area_code": "mkJlhqI", "name": "Hotel de la Sarthe" }, "geometry": { "type": "Point", "coordinates": [ 259951.727346762956586, 6252407.651690420694649 ] } },
{ "type": "Feature", "properties": { "PKID": 731, "phone_number": 9230358922, "area_code": "CZ24BbP", "name": "Hotel Le Littre" }, "geometry": { "type": "Point", "coordinates": [ 260738.502831885183696, 6249179.999604796990752 ] } },
{ "type": "Feature", "properties": { "PKID": 1010, "phone_number": 9183619802, "area_code": "sStLKY9", "name": "Le Grey Hotel" }, "geometry": { "type": "Point", "coordinates": [ 271116.618534224573523, 6246747.268800498917699 ] } },
{ "type": "Feature", "properties": { "PKID": 358, "phone_number": 8468517131, "area_code": "SC6gC63", "name": "Le Versigny" }, "geometry": { "type": "Point", "coordinates": [ 259646.808247482957086, 6251471.39635996799916 ] } },
{ "type": "Feature", "properties": { "PKID": 610, "phone_number": 3484104274, "area_code": "GNIWFj4", "name": "Modern's" }, "geometry": { "type": "Point", "coordinates": [ 260287.822698125673924, 6250150.773557575419545 ] } },
{ "type": "Feature", "properties": { "PKID": 1254, "phone_number": 3206514199, "area_code": "r9KXYRX", "name": "Hotel La Bourdonnais" }, "geometry": { "type": "Point", "coordinates": [ 250760.368903464346658, 6251515.651370904408395 ] } },
{ "type": "Feature", "properties": { "PKID": 1310, "phone_number": 9367276800, "area_code": "WHtxcAK", "name": "Le Pierre" }, "geometry": { "type": "Point", "coordinates": [ 263533.304770156275481, 6249403.772753280587494 ] } },
{ "type": "Feature", "properties": { "PKID": 294, "phone_number": 6623869238, "area_code": "MSIe450", "name": "Ibis Paris Brancion parc des expositions" }, "geometry": { "type": "Point", "coordinates": [ 260332.875103930156911, 6251259.894977075047791 ] } },
{ "type": "Feature", "properties": { "PKID": 808, "phone_number": 5054841063, "area_code": "afo3E4W", "name": "Grand Hotel Malher" }, "geometry": { "type": "Point", "coordinates": [ 258903.031610204081517, 6252032.284722066484392 ] } },
{ "type": "Feature", "properties": { "PKID": 1526, "phone_number": 9283177697, "area_code": "3Q0OtAV", "name": "Excelsior Hotel Varlin" }, "geometry": { "type": "Point", "coordinates": [ 262888.818432264437433, 6245213.893082910217345 ] } },
{ "type": "Feature", "properties": { "PKID": 605, "phone_number": 4311300690, "area_code": "uIygwBa", "name": "Hotel Exquis" }, "geometry": { "type": "Point", "coordinates": [ 259439.389505814819131, 6252193.467053359374404 ] } },
{ "type": "Feature", "properties": { "PKID": 1593, "phone_number": 6557371114, "area_code": "EDpbKhv", "name": "Hotel Europe" }, "geometry": { "type": "Point", "coordinates": [ 262919.632338281429838, 6255962.427710136398673 ] } },
{ "type": "Feature", "properties": { "PKID": 654, "phone_number": 4534576432, "area_code": "Ok0oCUs", "name": "Petit Palace Hotel" }, "geometry": { "type": "Point", "coordinates": [ 261726.783479647361673, 6250689.081314354203641 ] } },
{ "type": "Feature", "properties": { "PKID": 870, "phone_number": 9075688599, "area_code": "50vrgTC", "name": "Villa des ambassadeurs" }, "geometry": { "type": "Point", "coordinates": [ 263706.971124413714278, 6247057.253916398622096 ] } },
{ "type": "Feature", "properties": { "PKID": 40, "phone_number": 9930791517, "area_code": "piuVA0n", "name": "Ibis Ornano" }, "geometry": { "type": "Point", "coordinates": [ 260592.765822752320673, 6250275.194164396263659 ] } },
{ "type": "Feature", "properties": { "PKID": 976, "phone_number": 7451738380, "area_code": "tK8d89G", "name": "Hotel Grand Paris" }, "geometry": { "type": "Point", "coordinates": [ 272357.966340310988016, 6246381.734111297875643 ] } },
{ "type": "Feature", "properties": { "PKID": 1226, "phone_number": 9323200119, "area_code": "t7tPaBg", "name": "Hotel de Saint Germain" }, "geometry": { "type": "Point", "coordinates": [ 255758.330056781909661, 6248077.896010032854974 ] } },
{ "type": "Feature", "properties": { "PKID": 1247, "phone_number": 5608301635, "area_code": "bOD6rzi", "name": "Londres Saint-Honore" }, "geometry": { "type": "Point", "coordinates": [ 250229.99971622947487, 6251112.981489528901875 ] } },
{ "type": "Feature", "properties": { "PKID": 263, "phone_number": 9755035440, "area_code": "froJGsn", "name": "L'equiquier" }, "geometry": { "type": "Point", "coordinates": [ 261786.41531020210823, 6250271.821364152245224 ] } },
{ "type": "Feature", "properties": { "PKID": 212, "phone_number": 8462275422, "area_code": "iwbflo8", "name": "Aparthotel Adagio access Paris Bastille" }, "geometry": { "type": "Point", "coordinates": [ 260491.000651394919259, 6250853.071757574565709 ] } },
{ "type": "Feature", "properties": { "PKID": 413, "phone_number": 2384428155, "area_code": "DN39tjB", "name": "Hotel de Paris Montparnasse" }, "geometry": { "type": "Point", "coordinates": [ 260455.698798137833364, 6250736.199090781621635 ] } },
{ "type": "Feature", "properties": { "PKID": 563, "phone_number": 8907889646, "area_code": "Wad77PH", "name": "Hotel La Tour d'Auvergne" }, "geometry": { "type": "Point", "coordinates": [ 262153.831762301328126, 6248699.347042483277619 ] } },
{ "type": "Feature", "properties": { "PKID": 1277, "phone_number": 3115268061, "area_code": "ZxN0z4F", "name": "Majestic Hotel - Spa" }, "geometry": { "type": "Point", "coordinates": [ 250294.197871345095336, 6249556.097451179288328 ] } },
{ "type": "Feature", "properties": { "PKID": 1023, "phone_number": 1982568854, "area_code": "WjN46Cd", "name": "Novotel Paris Bercy" }, "geometry": { "type": "Point", "coordinates": [ 258337.402484576537972, 6246759.050801176577806 ] } },
{ "type": "Feature", "properties": { "PKID": 591, "phone_number": 5594164707, "area_code": "59POZTy", "name": "Archetype" }, "geometry": { "type": "Point", "coordinates": [ 258315.606226984411478, 6250477.898666861467063 ] } },
{ "type": "Feature", "properties": { "PKID": 1339, "phone_number": 7099376300, "area_code": "bxI3gJH", "name": "La Soummam" }, "geometry": { "type": "Point", "coordinates": [ 266148.89013905543834, 6253852.757945027202368 ] } },
{ "type": "Feature", "properties": { "PKID": 1140, "phone_number": 9746168556, "area_code": "OJ1pvTq", "name": "Hotel Berkeley" }, "geometry": { "type": "Point", "coordinates": [ 257693.53076236700872, 6255651.901842763647437 ] } },
{ "type": "Feature", "properties": { "PKID": 831, "phone_number": 6551451079, "area_code": "rR0lUoH", "name": "Hotel Franklin" }, "geometry": { "type": "Point", "coordinates": [ 261258.584166679269401, 6251801.999051314778626 ] } },
{ "type": "Feature", "properties": { "PKID": 1126, "phone_number": 4910645380, "area_code": "hAjg3Ig", "name": "La Canopee" }, "geometry": { "type": "Point", "coordinates": [ 258485.237700563040562, 6255479.430104629136622 ] } },
{ "type": "Feature", "properties": { "PKID": 398, "phone_number": 7861693125, "area_code": "Cne6ZUP", "name": "Hotel" }, "geometry": { "type": "Point", "coordinates": [ 262471.81278977781767, 6251340.877851052209735 ] } },
{ "type": "Feature", "properties": { "PKID": 142, "phone_number": 1395230073, "area_code": "x7WDEuF", "name": "Hotel Novex" }, "geometry": { "type": "Point", "coordinates": [ 259846.785330344777321, 6249770.273557977750897 ] } },
{ "type": "Feature", "properties": { "PKID": 1114, "phone_number": 2163421325, "area_code": "Ty4VKVv", "name": "Ibis" }, "geometry": { "type": "Point", "coordinates": [ 253790.866559405898442, 6252820.336474510841072 ] } },
{ "type": "Feature", "properties": { "PKID": 802, "phone_number": 4541121366, "area_code": "V69iYHV", "name": "Hotel Avenir Montmartre" }, "geometry": { "type": "Point", "coordinates": [ 260304.138632334506838, 6250141.436189225874841 ] } },
{ "type": "Feature", "properties": { "PKID": 662, "phone_number": 8623912518, "area_code": "DjWpuvb", "name": "Ibis Styles Paris Nation Cours de Vincennes" }, "geometry": { "type": "Point", "coordinates": [ 259968.841883824352408, 6252870.541760965250432 ] } },
{ "type": "Feature", "properties": { "PKID": 184, "phone_number": 7128677905, "area_code": "SHjWjda", "name": "Louvre Montana" }, "geometry": { "type": "Point", "coordinates": [ 260203.221732959587825, 6249792.843009809963405 ] } },
{ "type": "Feature", "properties": { "PKID": 0, "phone_number": 1983394481, "area_code": "cr1tNgC", "name": "Hotel Trinite Haussmann" }, "geometry": { "type": "Point", "coordinates": [ 260538.754605564899975, 6251147.327585224993527 ] } },
{ "type": "Feature", "properties": { "PKID": 773, "phone_number": 3199913187, "area_code": "xHB5M9m", "name": "D'win" }, "geometry": { "type": "Point", "coordinates": [ 260502.645906265854137, 6250779.697176985442638 ] } },
{ "type": "Feature", "properties": { "PKID": 1065, "phone_number": 4340016895, "area_code": "aXe4aAA", "name": "Hotel Madrigal" }, "geometry": { "type": "Point", "coordinates": [ 259391.192527673614677, 6246489.596362606622279 ] } },
{ "type": "Feature", "properties": { "PKID": 467, "phone_number": 9294930589, "area_code": "VV5xFEA", "name": "Hotel de la Tremoille" }, "geometry": { "type": "Point", "coordinates": [ 260407.209457192657283, 6252538.313735640607774 ] } },
{ "type": "Feature", "properties": { "PKID": 852, "phone_number": 4077849153, "area_code": "adovHuB", "name": "Les Bains Paris" }, "geometry": { "type": "Point", "coordinates": [ 259956.099061776534654, 6248180.164859010837972 ] } },
{ "type": "Feature", "properties": { "PKID": 534, "phone_number": 7788341661, "area_code": "AbUhqrx", "name": "Pershing Hall" }, "geometry": { "type": "Point", "coordinates": [ 262392.059130931680556, 6252819.293952732346952 ] } },
{ "type": "Feature", "properties": { "PKID": 130, "phone_number": 5517863464, "area_code": "X9SIqTX", "name": "Luxor Bastille Hotel" }, "geometry": { "type": "Point", "coordinates": [ 261265.580473947222345, 6251980.781041118316352 ] } },
{ "type": "Feature", "properties": { "PKID": 1025, "phone_number": 1054006586, "area_code": "y3d6II3", "name": "Hotel Kyriad" }, "geometry": { "type": "Point", "coordinates": [ 258353.894138989504427, 6246607.935529310256243 ] } },
{ "type": "Feature", "properties": { "PKID": 1242, "phone_number": 2083146761, "area_code": "Lq0N2bh", "name": "Hotel Moulin Plaza" }, "geometry": { "type": "Point", "coordinates": [ 250372.070384510996519, 6250231.720171612687409 ] } },
{ "type": "Feature", "properties": { "PKID": 1535, "phone_number": 4271379244, "area_code": "mKpkYfj", "name": "Melia Paris Notre Dame" }, "geometry": { "type": "Point", "coordinates": [ 263241.763391530956142, 6244969.998340018093586 ] } },
{ "type": "Feature", "properties": { "PKID": 363, "phone_number": 4148748830, "area_code": "ve66iSJ", "name": "Le Grand Quartier" }, "geometry": { "type": "Point", "coordinates": [ 260909.760987168207066, 6247811.87279567681253 ] } },
{ "type": "Feature", "properties": { "PKID": 346, "phone_number": 3206445621, "area_code": "6kENXMH", "name": "Bourgogne et Montana Hotel" }, "geometry": { "type": "Point", "coordinates": [ 262267.054139373532962, 6249829.662770623341203 ] } },
{ "type": "Feature", "properties": { "PKID": 637, "phone_number": 9175815925, "area_code": "xjjo9SN", "name": "Four Seasons Hotel George V" }, "geometry": { "type": "Point", "coordinates": [ 259578.230931172758574, 6249191.602268533781171 ] } },
{ "type": "Feature", "properties": { "PKID": 554, "phone_number": 5115422157, "area_code": "xLa7vWK", "name": "Hotel Saint-Pierre" }, "geometry": { "type": "Point", "coordinates": [ 262498.232448014430702, 6253395.723956802859902 ] } },
{ "type": "Feature", "properties": { "PKID": 325, "phone_number": 4090566526, "area_code": "RgBfEu2", "name": "Henri IV" }, "geometry": { "type": "Point", "coordinates": [ 258540.003948198951548, 6249731.306569887325168 ] } },
{ "type": "Feature", "properties": { "PKID": 1274, "phone_number": 5475372269, "area_code": "ajXRsas", "name": "Citadines" }, "geometry": { "type": "Point", "coordinates": [ 251468.946687136369292, 6251332.030210779048502 ] } },
{ "type": "Feature", "properties": { "PKID": 1557, "phone_number": 5503453315, "area_code": "lAlMmiy", "name": "Villa Glamour" }, "geometry": { "type": "Point", "coordinates": [ 262493.177450898452662, 6255516.355385196395218 ] } },
{ "type": "Feature", "properties": { "PKID": 626, "phone_number": 2870838602, "area_code": "Bm24sFx", "name": "Hotel Malar" }, "geometry": { "type": "Point", "coordinates": [ 261377.385783658770379, 6249406.952585710212588 ] } },
{ "type": "Feature", "properties": { "PKID": 431, "phone_number": 6401881048, "area_code": "5zlZ6Et", "name": "Motel One" }, "geometry": { "type": "Point", "coordinates": [ 260721.050520379067166, 6251240.367064381018281 ] } },
{ "type": "Feature", "properties": { "PKID": 1377, "phone_number": 6008496777, "area_code": "8PL3TRW", "name": "Tribe Paris 17 Batignolles" }, "geometry": { "type": "Point", "coordinates": [ 266884.377508641046006, 6252863.988589909859002 ] } },
{ "type": "Feature", "properties": { "PKID": 391, "phone_number": 8691428945, "area_code": "gmaire1", "name": "Hipotel" }, "geometry": { "type": "Point", "coordinates": [ 260758.90261440485483, 6250848.154269431717694 ] } },
{ "type": "Feature", "properties": { "PKID": 1569, "phone_number": 9234191025, "area_code": "9q0r8ZP", "name": "Regina" }, "geometry": { "type": "Point", "coordinates": [ 262269.82685982901603, 6256164.589438765309751 ] } },
{ "type": "Feature", "properties": { "PKID": 982, "phone_number": 2113952828, "area_code": "GNpAQEN", "name": "Hotel Élysees Regencia" }, "geometry": { "type": "Point", "coordinates": [ 271779.188205699727405, 6246587.858030571602285 ] } },
{ "type": "Feature", "properties": { "PKID": 796, "phone_number": 9607498397, "area_code": "1Bo34at", "name": "Maison Albar Hotel" }, "geometry": { "type": "Point", "coordinates": [ 259051.087554585945327, 6250041.447125234641135 ] } },
{ "type": "Feature", "properties": { "PKID": 481, "phone_number": 9703828183, "area_code": "DxSZWI7", "name": "Eiffel Saint-Charles" }, "geometry": { "type": "Point", "coordinates": [ 258840.701395231590141, 6252000.95160869974643 ] } },
{ "type": "Feature", "properties": { "PKID": 376, "phone_number": 9459323764, "area_code": "WsOMEVS", "name": "Hotel Saint-Christophe" }, "geometry": { "type": "Point", "coordinates": [ 260267.706800294166896, 6247201.755569349043071 ] } },
{ "type": "Feature", "properties": { "PKID": 471, "phone_number": 7582891865, "area_code": "jNjbHry", "name": "Tourisme avenue hotel" }, "geometry": { "type": "Point", "coordinates": [ 262243.972903978079557, 6250341.813352362252772 ] } },
{ "type": "Feature", "properties": { "PKID": 917, "phone_number": 9026244157, "area_code": "EMTmSdA", "name": "Moley" }, "geometry": { "type": "Point", "coordinates": [ 256185.692126690497389, 6249847.460304021835327 ] } },
{ "type": "Feature", "properties": { "PKID": 1028, "phone_number": 4973422073, "area_code": "EPb0lJw", "name": "B&B Hotel Paris 17 Batignolles" }, "geometry": { "type": "Point", "coordinates": [ 258726.663115498027764, 6246788.481476726010442 ] } },
{ "type": "Feature", "properties": { "PKID": 868, "phone_number": 6616107386, "area_code": "Y6NMSAE", "name": "Le Relais Medici" }, "geometry": { "type": "Point", "coordinates": [ 263866.097632814198732, 6254132.371502943336964 ] } },
{ "type": "Feature", "properties": { "PKID": 390, "phone_number": 7709238412, "area_code": "NAd0jAI", "name": "Hotel Aston" }, "geometry": { "type": "Point", "coordinates": [ 261984.311035044607706, 6250676.256013234145939 ] } },
{ "type": "Feature", "properties": { "PKID": 872, "phone_number": 8747976191, "area_code": "45iT0os", "name": "Ideal Hotel" }, "geometry": { "type": "Point", "coordinates": [ 257670.63647964206757, 6249767.165820555761456 ] } },
{ "type": "Feature", "properties": { "PKID": 1000, "phone_number": 3525795866, "area_code": "mAgqAUd", "name": "Hotel de Nesle" }, "geometry": { "type": "Point", "coordinates": [ 272831.146915034740232, 6246353.359718143008649 ] } },
{ "type": "Feature", "properties": { "PKID": 486, "phone_number": 1434688944, "area_code": "96DiC7W", "name": "Hotel Saint-Pierre" }, "geometry": { "type": "Point", "coordinates": [ 263408.660163651860785, 6249690.067014968954027 ] } },
{ "type": "Feature", "properties": { "PKID": 1436, "phone_number": 7585593423, "area_code": "UuNlryf", "name": "Ascot Opera" }, "geometry": { "type": "Point", "coordinates": [ 267514.286884328117594, 6248466.24844628199935 ] } },
{ "type": "Feature", "properties": { "PKID": 360, "phone_number": 8805268750, "area_code": "DmPXgNX", "name": "Ibis Paris Grands Boulevards Opera" }, "geometry": { "type": "Point", "coordinates": [ 259815.181483163032681, 6249293.863071877509356 ] } },
{ "type": "Feature", "properties": { "PKID": 1313, "phone_number": 7791036640, "area_code": "GkJS4Ef", "name": "Hotel Saint-James & Albany" }, "geometry": { "type": "Point", "coordinates": [ 263712.140568529663142, 6249681.869029284454882 ] } },
{ "type": "Feature", "properties": { "PKID": 1055, "phone_number": 4872965644, "area_code": "Asn3AGl", "name": "Moulin Vert" }, "geometry": { "type": "Point", "coordinates": [ 257877.01258278163732, 6247482.014165296219289 ] } },
{ "type": "Feature", "properties": { "PKID": 1236, "phone_number": 4497625465, "area_code": "ufznyMz", "name": "Hotel Rochester" }, "geometry": { "type": "Point", "coordinates": [ 250693.726307673030533, 6250347.343143397942185 ] } },
{ "type": "Feature", "properties": { "PKID": 1119, "phone_number": 7844344091, "area_code": "9pvG7wW", "name": "Geoffroy Marie Opera" }, "geometry": { "type": "Point", "coordinates": [ 255043.638891902752221, 6253581.273816136643291 ] } },
{ "type": "Feature", "properties": { "PKID": 1485, "phone_number": 8859932391, "area_code": "OilDtu7", "name": "Sofitel Arc de Triomphe" }, "geometry": { "type": "Point", "coordinates": [ 259351.199010646319948, 6250578.464724738150835 ] } },
{ "type": "Feature", "properties": { "PKID": 1272, "phone_number": 4317495909, "area_code": "cdlWfeD", "name": "Oceanic" }, "geometry": { "type": "Point", "coordinates": [ 251377.35197855727165, 6249723.331144856289029 ] } },
{ "type": "Feature", "properties": { "PKID": 1163, "phone_number": 9420327259, "area_code": "ZJuWNOE", "name": "Hotel Stanislas" }, "geometry": { "type": "Point", "coordinates": [ 258309.329743966751266, 6256308.21750002913177 ] } },
{ "type": "Feature", "properties": { "PKID": 236, "phone_number": 8451172243, "area_code": "CQQvDTG", "name": "Hotel de l'Europe" }, "geometry": { "type": "Point", "coordinates": [ 260816.215514943236485, 6249928.859014096669853 ] } },
{ "type": "Feature", "properties": { "PKID": 1176, "phone_number": 6716996677, "area_code": "ihVYxtS", "name": "Ibis Paris Grands Boulevards Opera" }, "geometry": { "type": "Point", "coordinates": [ 254866.01073628544691, 6248054.098334933631122 ] } },
{ "type": "Feature", "properties": { "PKID": 1245, "phone_number": 2052421343, "area_code": "c7UxLGw", "name": "Danemark" }, "geometry": { "type": "Point", "coordinates": [ 250096.076302980131004, 6250675.940623910166323 ] } },
{ "type": "Feature", "properties": { "PKID": 1567, "phone_number": 8460780313, "area_code": "nS6NqdV", "name": "Hotel Langlois" }, "geometry": { "type": "Point", "coordinates": [ 262432.736827652493957, 6256108.058360561728477 ] } },
{ "type": "Feature", "properties": { "PKID": 50, "phone_number": 7406229241, "area_code": "FffyYsb", "name": "Quality Abaca Messidor" }, "geometry": { "type": "Point", "coordinates": [ 261146.34005531220464, 6250750.236622173339128 ] } },
{ "type": "Feature", "properties": { "PKID": 1305, "phone_number": 4412458994, "area_code": "iqjNAxM", "name": "Victoire & Germain" }, "geometry": { "type": "Point", "coordinates": [ 263524.097999531542882, 6250370.219278507865965 ] } },
{ "type": "Feature", "properties": { "PKID": 1203, "phone_number": 7148880375, "area_code": "mDljIEK", "name": "Hotel Exelmans" }, "geometry": { "type": "Point", "coordinates": [ 253485.539046332298312, 6248421.796166718937457 ] } },
{ "type": "Feature", "properties": { "PKID": 54, "phone_number": 3642205919, "area_code": "hzHaQMM", "name": "Hotel Aero" }, "geometry": { "type": "Point", "coordinates": [ 260988.55405726924073, 6250832.62263463716954 ] } },
{ "type": "Feature", "properties": { "PKID": 719, "phone_number": 3995919041, "area_code": "JbIeI98", "name": "Glam's Hotel" }, "geometry": { "type": "Point", "coordinates": [ 263105.357071331236511, 6247921.42355477437377 ] } },
{ "type": "Feature", "properties": { "PKID": 483, "phone_number": 6475428452, "area_code": "upMyKac", "name": "Hotel Le Tourville" }, "geometry": { "type": "Point", "coordinates": [ 259934.290830012498191, 6250358.259018666110933 ] } },
{ "type": "Feature", "properties": { "PKID": 1201, "phone_number": 8954473051, "area_code": "zektGQi", "name": "Hotel Design de la Sorbonne" }, "geometry": { "type": "Point", "coordinates": [ 255051.183966616838006, 6248540.97045367769897 ] } },
{ "type": "Feature", "properties": { "PKID": 337, "phone_number": 1547809669, "area_code": "OyXimQ9", "name": "Beaugrenelle Saint-Charles" }, "geometry": { "type": "Point", "coordinates": [ 259983.178417976712808, 6249329.579578516073525 ] } },
{ "type": "Feature", "properties": { "PKID": 1544, "phone_number": 7638523262, "area_code": "FOHGdKP", "name": "Hotel Mercure Paris XV" }, "geometry": { "type": "Point", "coordinates": [ 263610.83606458036229, 6245850.803731503896415 ] } },
{ "type": "Feature", "properties": { "PKID": 261, "phone_number": 4862115273, "area_code": "YAa8Ihy", "name": "Hotel Europe" }, "geometry": { "type": "Point", "coordinates": [ 261638.960184527502861, 6251511.760071269236505 ] } },
{ "type": "Feature", "properties": { "PKID": 7, "phone_number": 5688085306, "area_code": "B56k4zn", "name": "Hotel Saint-Ambroise" }, "geometry": { "type": "Point", "coordinates": [ 261114.634512652351987, 6250320.433199154213071 ] } },
{ "type": "Feature", "properties": { "PKID": 1487, "phone_number": 2757454995, "area_code": "tZaLrxt", "name": "Hotel de Lutèce" }, "geometry": { "type": "Point", "coordinates": [ 258989.200079982547322, 6250301.299735057167709 ] } },
{ "type": "Feature", "properties": { "PKID": 603, "phone_number": 6683642387, "area_code": "zZU88no", "name": "Hotel Des Arts Bastille" }, "geometry": { "type": "Point", "coordinates": [ 260682.107462918123929, 6248809.235807668417692 ] } },
{ "type": "Feature", "properties": { "PKID": 916, "phone_number": 9788550864, "area_code": "TovoAB7", "name": "Panam Hotel" }, "geometry": { "type": "Point", "coordinates": [ 258418.144762886659009, 6253239.734942440874875 ] } },
{ "type": "Feature", "properties": { "PKID": 961, "phone_number": 5618209532, "area_code": "hMMeCcs", "name": "Maison Albar Hotel" }, "geometry": { "type": "Point", "coordinates": [ 272261.758863033086527, 6246388.132415278814733 ] } },
{ "type": "Feature", "properties": { "PKID": 542, "phone_number": 9755279223, "area_code": "OlaCVDI", "name": "Le Jardin de Cluny" }, "geometry": { "type": "Point", "coordinates": [ 257743.564758747525048, 6249936.402025767602026 ] } },
{ "type": "Feature", "properties": { "PKID": 743, "phone_number": 6411066986, "area_code": "ZEsZ0rS", "name": "Citadines Place d'Italie" }, "geometry": { "type": "Point", "coordinates": [ 262029.95556738472078, 6248497.591167912818491 ] } },
{ "type": "Feature", "properties": { "PKID": 1135, "phone_number": 3616805200, "area_code": "Kkhnai4", "name": "Lilas Blanc Grenelle" }, "geometry": { "type": "Point", "coordinates": [ 257914.221080927411094, 6255042.779369710944593 ] } },
{ "type": "Feature", "properties": { "PKID": 595, "phone_number": 5259627999, "area_code": "6BYfLzp", "name": "The Playce Hotel" }, "geometry": { "type": "Point", "coordinates": [ 260050.975788068462862, 6249678.729435423389077 ] } },
{ "type": "Feature", "properties": { "PKID": 1517, "phone_number": 3640746852, "area_code": "NHZ7ttN", "name": "Hotel du Calvados" }, "geometry": { "type": "Point", "coordinates": [ 262072.897995516395895, 6245694.923569356091321 ] } },
{ "type": "Feature", "properties": { "PKID": 553, "phone_number": 5936221517, "area_code": "iblYigV", "name": "Hotel Indigo Paris - Opera" }, "geometry": { "type": "Point", "coordinates": [ 261646.412844079721253, 6250861.515528204850852 ] } },
{ "type": "Feature", "properties": { "PKID": 306, "phone_number": 8918248445, "area_code": "6YOMqQB", "name": "Citadines Apart'Hotel" }, "geometry": { "type": "Point", "coordinates": [ 262128.966859385167481, 6248169.051457996480167 ] } },
{ "type": "Feature", "properties": { "PKID": 1079, "phone_number": 4529207435, "area_code": "aJZHIxY", "name": "Le Richmond" }, "geometry": { "type": "Point", "coordinates": [ 254764.283842737873783, 6252044.599993807263672 ] } },
{ "type": "Feature", "properties": { "PKID": 926, "phone_number": 9223646116, "area_code": "HDoCstv", "name": "Castex Hotel" }, "geometry": { "type": "Point", "coordinates": [ 262052.519307334878249, 6247753.776064756326377 ] } },
{ "type": "Feature", "properties": { "PKID": 468, "phone_number": 3330658559, "area_code": "OCGLmrj", "name": "Hotel Orphee" }, "geometry": { "type": "Point", "coordinates": [ 261498.84858619197621, 6252301.981342609040439 ] } },
{ "type": "Feature", "properties": { "PKID": 911, "phone_number": 7332924937, "area_code": "CQAQ352", "name": "Mercure Hotel" }, "geometry": { "type": "Point", "coordinates": [ 263501.822835116938222, 6250341.531962798908353 ] } },
{ "type": "Feature", "properties": { "PKID": 957, "phone_number": 9033437670, "area_code": "gcDiqE4", "name": "Hotel Edouard VI" }, "geometry": { "type": "Point", "coordinates": [ 255442.056056712695863, 6247450.113135240972042 ] } },
{ "type": "Feature", "properties": { "PKID": 1180, "phone_number": 8145236843, "area_code": "b9yJCBB", "name": "Le 55 Montparnasse" }, "geometry": { "type": "Point", "coordinates": [ 254587.78371350033558, 6248075.892405604943633 ] } },
{ "type": "Feature", "properties": { "PKID": 1398, "phone_number": 5818575411, "area_code": "Nh0Nbaa", "name": "Hotel du Champ de Mars" }, "geometry": { "type": "Point", "coordinates": [ 267872.976667674083728, 6247884.162229530513287 ] } },
{ "type": "Feature", "properties": { "PKID": 729, "phone_number": 8904810698, "area_code": "gJwTe2w", "name": "Timhotel" }, "geometry": { "type": "Point", "coordinates": [ 262092.780473094637273, 6251132.991325584240258 ] } },
{ "type": "Feature", "properties": { "PKID": 556, "phone_number": 3408875435, "area_code": "KdqyvE3", "name": "Villa Saxe Eiffel" }, "geometry": { "type": "Point", "coordinates": [ 263425.920506354188547, 6252385.708501149900258 ] } },
{ "type": "Feature", "properties": { "PKID": 451, "phone_number": 3946174647, "area_code": "yEWFGHJ", "name": "Hotel Saint-Andre des Arts" }, "geometry": { "type": "Point", "coordinates": [ 261229.180347395362332, 6249661.699320922605693 ] } },
{ "type": "Feature", "properties": { "PKID": 250, "phone_number": 5798314327, "area_code": "1awooJT", "name": "Le Baron" }, "geometry": { "type": "Point", "coordinates": [ 260455.378825040505035, 6250697.401554577052593 ] } },
{ "type": "Feature", "properties": { "PKID": 179, "phone_number": 5383107337, "area_code": "Wm7mEdf", "name": "Hotel Square Louvois" }, "geometry": { "type": "Point", "coordinates": [ 260782.327806008746848, 6251105.328693122602999 ] } },
{ "type": "Feature", "properties": { "PKID": 702, "phone_number": 1247099936, "area_code": "UZktN4k", "name": "Hotel Therèse" }, "geometry": { "type": "Point", "coordinates": [ 264256.539415110775735, 6251903.44813116453588 ] } },
{ "type": "Feature", "properties": { "PKID": 1549, "phone_number": 9210916414, "area_code": "mfg1hIQ", "name": "Hotel California" }, "geometry": { "type": "Point", "coordinates": [ 263338.618671302509028, 6246505.570451222360134 ] } },
{ "type": "Feature", "properties": { "PKID": 95, "phone_number": 5129732775, "area_code": "ZSoTFbD", "name": "Printania" }, "geometry": { "type": "Point", "coordinates": [ 260855.226536855596351, 6251574.263487346470356 ] } },
{ "type": "Feature", "properties": { "PKID": 1384, "phone_number": 6110696548, "area_code": "aRO5WSL", "name": "La nouvelle Republique" }, "geometry": { "type": "Point", "coordinates": [ 265376.496711752261035, 6254280.33066566940397 ] } },
{ "type": "Feature", "properties": { "PKID": 424, "phone_number": 2617804323, "area_code": "mRKmwwZ", "name": "Hotel Lecourbe" }, "geometry": { "type": "Point", "coordinates": [ 260111.058276360359741, 6252561.616041851229966 ] } },
{ "type": "Feature", "properties": { "PKID": 1130, "phone_number": 1292868351, "area_code": "eByC5sQ", "name": "Hotel du Colisee" }, "geometry": { "type": "Point", "coordinates": [ 257999.626298287243117, 6255703.269764899276197 ] } },
{ "type": "Feature", "properties": { "PKID": 548, "phone_number": 4392769925, "area_code": "SS2a632", "name": "Hotel de Maubeuge" }, "geometry": { "type": "Point", "coordinates": [ 259080.246267281210748, 6249742.648588296025991 ] } },
{ "type": "Feature", "properties": { "PKID": 144, "phone_number": 4969484879, "area_code": "AjYolQw", "name": "Gustave" }, "geometry": { "type": "Point", "coordinates": [ 261385.543463887152029, 6251123.983791559934616 ] } },
{ "type": "Feature", "properties": { "PKID": 343, "phone_number": 1172199382, "area_code": "86S0Goi", "name": "My Home in Paris" }, "geometry": { "type": "Point", "coordinates": [ 261967.468611605610931, 6251888.986912422813475 ] } },
{ "type": "Feature", "properties": { "PKID": 1034, "phone_number": 4788785732, "area_code": "EbGTC6Z", "name": "Grand Hotel Saint-Michel" }, "geometry": { "type": "Point", "coordinates": [ 258554.892709992767777, 6246643.996137757785618 ] } },
{ "type": "Feature", "properties": { "PKID": 1498, "phone_number": 9783200128, "area_code": "trxWgSq", "name": "Hotel Mercure Paris 19 Philharmonie La Villette" }, "geometry": { "type": "Point", "coordinates": [ 260100.460142304451438, 6252086.217143285088241 ] } },
{ "type": "Feature", "properties": { "PKID": 771, "phone_number": 4823474594, "area_code": "9FNzwV3", "name": "Hotel du Rond-Point des Champs-Élysees" }, "geometry": { "type": "Point", "coordinates": [ 262009.413558149011806, 6249211.376135600730777 ] } },
{ "type": "Feature", "properties": { "PKID": 88, "phone_number": 3199779619, "area_code": "Dv1cQbc", "name": "Hotel Best Western Ducs de Bourgogne" }, "geometry": { "type": "Point", "coordinates": [ 261062.479166768986033, 6250816.975517328828573 ] } },
{ "type": "Feature", "properties": { "PKID": 364, "phone_number": 2563847093, "area_code": "uwFz61P", "name": "Axel Opera" }, "geometry": { "type": "Point", "coordinates": [ 263663.691491147503257, 6253040.595816304907203 ] } },
{ "type": "Feature", "properties": { "PKID": 1477, "phone_number": 9380182124, "area_code": "FLXs92c", "name": "Hotel Saint-Pierre" }, "geometry": { "type": "Point", "coordinates": [ 259096.81500256707659, 6250950.211077864281833 ] } },
{ "type": "Feature", "properties": { "PKID": 1300, "phone_number": 1716458495, "area_code": "1KqP0dY", "name": "Hotel Korner" }, "geometry": { "type": "Point", "coordinates": [ 264390.010838202491868, 6249859.111324148252606 ] } },
{ "type": "Feature", "properties": { "PKID": 219, "phone_number": 3124316775, "area_code": "MrnWUwf", "name": "Hotel Dress Code" }, "geometry": { "type": "Point", "coordinates": [ 260964.281916669482598, 6251744.483007818460464 ] } },
{ "type": "Feature", "properties": { "PKID": 727, "phone_number": 2489287149, "area_code": "MAWMIoh", "name": "Hotel Best Western Ducs de Bourgogne" }, "geometry": { "type": "Point", "coordinates": [ 257391.827365889999783, 6249370.063180292956531 ] } },
{ "type": "Feature", "properties": { "PKID": 953, "phone_number": 4412808349, "area_code": "xipU2iZ", "name": "Hotel Rubens" }, "geometry": { "type": "Point", "coordinates": [ 255257.31573519896483, 6247748.437903828918934 ] } },
{ "type": "Feature", "properties": { "PKID": 649, "phone_number": 8062511366, "area_code": "OePyvgg", "name": "Hotel Hameau de Passy" }, "geometry": { "type": "Point", "coordinates": [ 260377.723637977847829, 6252673.707852154970169 ] } },
{ "type": "Feature", "properties": { "PKID": 1525, "phone_number": 5102155112, "area_code": "ADRLb2n", "name": "Hotel Exelmans" }, "geometry": { "type": "Point", "coordinates": [ 262499.01846266182838, 6245854.777423509396613 ] } },
{ "type": "Feature", "properties": { "PKID": 1350, "phone_number": 2180706773, "area_code": "oyn20QE", "name": "Hotel Gerando" }, "geometry": { "type": "Point", "coordinates": [ 266708.026414225343615, 6253674.760165516287088 ] } },
{ "type": "Feature", "properties": { "PKID": 399, "phone_number": 5726139503, "area_code": "u7JjsNv", "name": "Renoir" }, "geometry": { "type": "Point", "coordinates": [ 260463.684804045857163, 6252236.672637936659157 ] } },
{ "type": "Feature", "properties": { "PKID": 1456, "phone_number": 2851551977, "area_code": "GOWR2xc", "name": "Hotel les deux Îles" }, "geometry": { "type": "Point", "coordinates": [ 259288.712531787867192, 6251118.633632217533886 ] } },
{ "type": "Feature", "properties": { "PKID": 1016, "phone_number": 7753712320, "area_code": "K78Ro6C", "name": "Majestic Hotel - Spa" }, "geometry": { "type": "Point", "coordinates": [ 258607.316825527494075, 6246712.192039918154478 ] } },
{ "type": "Feature", "properties": { "PKID": 111, "phone_number": 4980292890, "area_code": "LQl1Hqd", "name": "Hotel Jarry" }, "geometry": { "type": "Point", "coordinates": [ 260677.925197678268887, 6251886.902188854292035 ] } },
{ "type": "Feature", "properties": { "PKID": 791, "phone_number": 2575978406, "area_code": "hOXIp9m", "name": "Hotel de Nantes" }, "geometry": { "type": "Point", "coordinates": [ 261559.941910819965415, 6251574.471084977500141 ] } },
{ "type": "Feature", "properties": { "PKID": 1462, "phone_number": 8049001711, "area_code": "7WE9EHq", "name": "Cyrano" }, "geometry": { "type": "Point", "coordinates": [ 259765.902275077038212, 6251181.354927284643054 ] } },
{ "type": "Feature", "properties": { "PKID": 206, "phone_number": 6803731023, "area_code": "658X5pH", "name": "Hotel Valadon" }, "geometry": { "type": "Point", "coordinates": [ 260795.386669647064991, 6249613.327311894856393 ] } },
{ "type": "Feature", "properties": { "PKID": 1435, "phone_number": 3998794154, "area_code": "pEVWXcU", "name": "Grand Hotel de Malte Opera - Astotel" }, "geometry": { "type": "Point", "coordinates": [ 267074.104378352523781, 6246900.29731138329953 ] } },
{ "type": "Feature", "properties": { "PKID": 269, "phone_number": 9113931830, "area_code": "dOPWJFr", "name": "Europeen" }, "geometry": { "type": "Point", "coordinates": [ 261401.718320426763967, 6249259.10474219545722 ] } },
{ "type": "Feature", "properties": { "PKID": 721, "phone_number": 8194208337, "area_code": "DJ2dUQl", "name": "Le Compostelle" }, "geometry": { "type": "Point", "coordinates": [ 259137.559180298849242, 6249268.653183286078274 ] } },
{ "type": "Feature", "properties": { "PKID": 942, "phone_number": 2526082493, "area_code": "TQq5t2f", "name": "Grand Hotel Saint-Michel" }, "geometry": { "type": "Point", "coordinates": [ 265027.158559760369826, 6246326.983852688223124 ] } },
{ "type": "Feature", "properties": { "PKID": 515, "phone_number": 8454941507, "area_code": "kpZvO8P", "name": "Renaissance Paris Vendome Hotel" }, "geometry": { "type": "Point", "coordinates": [ 260559.466574762598611, 6249472.950587005354464 ] } },
{ "type": "Feature", "properties": { "PKID": 70, "phone_number": 4599712173, "area_code": "3Q4LR84", "name": "Les Matins de Paris" }, "geometry": { "type": "Point", "coordinates": [ 260466.407083702157252, 6250176.671446402557194 ] } },
{ "type": "Feature", "properties": { "PKID": 648, "phone_number": 6788739304, "area_code": "kvkkluz", "name": "Marsollier Opera" }, "geometry": { "type": "Point", "coordinates": [ 258779.302121326851193, 6249840.204458112828434 ] } },
{ "type": "Feature", "properties": { "PKID": 604, "phone_number": 7500427889, "area_code": "8sZUNDw", "name": "TimHotel Paris Tour Eiffel" }, "geometry": { "type": "Point", "coordinates": [ 259585.939444165822351, 6249036.183713072910905 ] } },
{ "type": "Feature", "properties": { "PKID": 936, "phone_number": 3412429225, "area_code": "ATNayNw", "name": "Agate Hotel" }, "geometry": { "type": "Point", "coordinates": [ 264784.034323726082221, 6251685.77039438765496 ] } },
{ "type": "Feature", "properties": { "PKID": 1059, "phone_number": 9943958358, "area_code": "O27n6yt", "name": "Mama Shelter Hotel" }, "geometry": { "type": "Point", "coordinates": [ 258866.157644066290231, 6246253.879397921264172 ] } },
{ "type": "Feature", "properties": { "PKID": 665, "phone_number": 4246562507, "area_code": "dekujXG", "name": "Monsieur Georges Hotel & Spa" }, "geometry": { "type": "Point", "coordinates": [ 259053.971715893072542, 6249216.864474889822304 ] } },
{ "type": "Feature", "properties": { "PKID": 217, "phone_number": 2275227038, "area_code": "dQIgysV", "name": "Hotel Mayfair Paris" }, "geometry": { "type": "Point", "coordinates": [ 260308.387442973296857, 6251716.37299900688231 ] } },
{ "type": "Feature", "properties": { "PKID": 741, "phone_number": 7391148121, "area_code": "9AmZtY9", "name": "Hotel de Suède" }, "geometry": { "type": "Point", "coordinates": [ 257333.95823665469652, 6248253.452589573338628 ] } },
{ "type": "Feature", "properties": { "PKID": 319, "phone_number": 9354483172, "area_code": "cAwQ3Rc", "name": "Hotel Champerret-Heliopolis" }, "geometry": { "type": "Point", "coordinates": [ 261919.817498013027944, 6252753.91273548733443 ] } },
{ "type": "Feature", "properties": { "PKID": 678, "phone_number": 1560486193, "area_code": "TWTGtzR", "name": "Louis II" }, "geometry": { "type": "Point", "coordinates": [ 261134.174110793654108, 6254706.040435001254082 ] } },
{ "type": "Feature", "properties": { "PKID": 1324, "phone_number": 8424969474, "area_code": "EW442RT", "name": "Hotel Claridge" }, "geometry": { "type": "Point", "coordinates": [ 263726.90748378355056, 6250185.963297361508012 ] } },
{ "type": "Feature", "properties": { "PKID": 1142, "phone_number": 2253847469, "area_code": "1kybigp", "name": "Relais Christine" }, "geometry": { "type": "Point", "coordinates": [ 258311.697284136695089, 6254959.048263026401401 ] } },
{ "type": "Feature", "properties": { "PKID": 344, "phone_number": 9880187847, "area_code": "3aGGdRi", "name": "Hotel du Moulin" }, "geometry": { "type": "Point", "coordinates": [ 262162.45731159648858, 6248616.265651928260922 ] } },
{ "type": "Feature", "properties": { "PKID": 997, "phone_number": 4199083975, "area_code": "gLF30Xg", "name": "Melia Paris Notre Dame" }, "geometry": { "type": "Point", "coordinates": [ 273003.87323627906153, 6245442.517989334650338 ] } },
{ "type": "Feature", "properties": { "PKID": 864, "phone_number": 7197901663, "area_code": "tGRXplo", "name": "Kimotel" }, "geometry": { "type": "Point", "coordinates": [ 258900.134458126820391, 6254516.889097292907536 ] } },
{ "type": "Feature", "properties": { "PKID": 708, "phone_number": 5253770108, "area_code": "7LwDBj4", "name": "NHB" }, "geometry": { "type": "Point", "coordinates": [ 258813.792878968029981, 6248196.803736729547381 ] } },
{ "type": "Feature", "properties": { "PKID": 873, "phone_number": 1563077632, "area_code": "hgIeVkK", "name": "Baldi" }, "geometry": { "type": "Point", "coordinates": [ 258359.349810466868803, 6251087.335642918013036 ] } },
{ "type": "Feature", "properties": { "PKID": 1276, "phone_number": 4122234874, "area_code": "sfOzEfF", "name": "Hotel Best Western Ducs de Bourgogne" }, "geometry": { "type": "Point", "coordinates": [ 249796.626506367407274, 6251036.18288673274219 ] } },
{ "type": "Feature", "properties": { "PKID": 764, "phone_number": 7129067231, "area_code": "FIG2EbC", "name": "Madrid Opera" }, "geometry": { "type": "Point", "coordinates": [ 259740.172296309436206, 6245039.492275336757302 ] } },
{ "type": "Feature", "properties": { "PKID": 1031, "phone_number": 1951379070, "area_code": "vk7MINJ", "name": "Fiat" }, "geometry": { "type": "Point", "coordinates": [ 258157.437292327813338, 6246959.015820135362446 ] } },
{ "type": "Feature", "properties": { "PKID": 1509, "phone_number": 2180094126, "area_code": "FDWTNaL", "name": "Hotel du Pont Neuf" }, "geometry": { "type": "Point", "coordinates": [ 262510.947340340120718, 6245469.937858747318387 ] } },
{ "type": "Feature", "properties": { "PKID": 463, "phone_number": 3349503233, "area_code": "4dsRho8", "name": "Hotel de l'Esperance" }, "geometry": { "type": "Point", "coordinates": [ 260976.183325967489509, 6250634.910075735300779 ] } },
{ "type": "Feature", "properties": { "PKID": 673, "phone_number": 9763065960, "area_code": "tn692cU", "name": "Hotel Ibis Paris 17 Clichy-Batignolles" }, "geometry": { "type": "Point", "coordinates": [ 261149.53546430519782, 6248239.874076480045915 ] } },
{ "type": "Feature", "properties": { "PKID": 935, "phone_number": 5565003815, "area_code": "NobZqOC", "name": "Hotel Scribe" }, "geometry": { "type": "Point", "coordinates": [ 260086.274928698840085, 6250762.811650846153498 ] } },
{ "type": "Feature", "properties": { "PKID": 680, "phone_number": 4880300040, "area_code": "RI5aDVb", "name": "Hotel Flor Rivoli" }, "geometry": { "type": "Point", "coordinates": [ 256900.554777083394583, 6250154.331285514868796 ] } },
{ "type": "Feature", "properties": { "PKID": 270, "phone_number": 1733318140, "area_code": "o34TrCf", "name": "Aparthotel Adagio Paris Bercy Village" }, "geometry": { "type": "Point", "coordinates": [ 261452.01645806452143, 6249525.688746624626219 ] } },
{ "type": "Feature", "properties": { "PKID": 893, "phone_number": 2510999555, "area_code": "zAS6vib", "name": "Hotel Eber Mars" }, "geometry": { "type": "Point", "coordinates": [ 263312.898490183986723, 6252221.929280733689666 ] } },
{ "type": "Feature", "properties": { "PKID": 164, "phone_number": 1090497604, "area_code": "dsc8M5t", "name": "Residence des Arts" }, "geometry": { "type": "Point", "coordinates": [ 259906.041362075688085, 6250815.117792093195021 ] } },
{ "type": "Feature", "properties": { "PKID": 1561, "phone_number": 7499983255, "area_code": "HOsjNCy", "name": "Le Chaplain" }, "geometry": { "type": "Point", "coordinates": [ 262438.530346187471878, 6255767.564482005313039 ] } },
{ "type": "Feature", "properties": { "PKID": 1128, "phone_number": 1696332157, "area_code": "zTmbMks", "name": "Hotel de l'Horloge" }, "geometry": { "type": "Point", "coordinates": [ 258453.54974368980038, 6255674.367896349169314 ] } },
{ "type": "Feature", "properties": { "PKID": 612, "phone_number": 6728654358, "area_code": "ibHp81t", "name": "Hotel Ronceray" }, "geometry": { "type": "Point", "coordinates": [ 259808.240611430781428, 6250027.775819757021964 ] } },
{ "type": "Feature", "properties": { "PKID": 237, "phone_number": 3776035006, "area_code": "G03Eg1j", "name": "Adriatic" }, "geometry": { "type": "Point", "coordinates": [ 261258.246457831643056, 6251077.19456035643816 ] } },
{ "type": "Feature", "properties": { "PKID": 291, "phone_number": 9206909140, "area_code": "S2aM2pf", "name": "Hotel du Leman" }, "geometry": { "type": "Point", "coordinates": [ 261958.235356530814897, 6252669.001579966396093 ] } },
{ "type": "Feature", "properties": { "PKID": 1123, "phone_number": 7570008968, "area_code": "NUJxJMz", "name": "Les Jardins de Montmartre" }, "geometry": { "type": "Point", "coordinates": [ 257967.976309939811472, 6255125.355355395004153 ] } },
{ "type": "Feature", "properties": { "PKID": 842, "phone_number": 2326735644, "area_code": "uE8vCrM", "name": "Louis II" }, "geometry": { "type": "Point", "coordinates": [ 261885.142957978445338, 6249571.37053292337805 ] } },
{ "type": "Feature", "properties": { "PKID": 1221, "phone_number": 5831151607, "area_code": "tPA1j4n", "name": "Hotel Westminster" }, "geometry": { "type": "Point", "coordinates": [ 254136.256411767419195, 6247712.677121463231742 ] } },
{ "type": "Feature", "properties": { "PKID": 132, "phone_number": 2108297885, "area_code": "9fYdpTs", "name": "Hotel Paris Villette" }, "geometry": { "type": "Point", "coordinates": [ 259824.084207860432798, 6251084.359101975336671 ] } },
{ "type": "Feature", "properties": { "PKID": 1027, "phone_number": 5803742877, "area_code": "bMbWN3o", "name": "Hotel de Roubaix" }, "geometry": { "type": "Point", "coordinates": [ 258358.587527917872649, 6246441.930018164217472 ] } },
{ "type": "Feature", "properties": { "PKID": 922, "phone_number": 4853006487, "area_code": "FHyVvn3", "name": "Hotel du Petit Louvre" }, "geometry": { "type": "Point", "coordinates": [ 262595.940825890749693, 6252546.450155719183385 ] } },
{ "type": "Feature", "properties": { "PKID": 1271, "phone_number": 1320564267, "area_code": "0mK7QyY", "name": "Les Jardins du Luxembourg" }, "geometry": { "type": "Point", "coordinates": [ 251263.768351426639128, 6250981.967411021701992 ] } },
{ "type": "Feature", "properties": { "PKID": 664, "phone_number": 8056979954, "area_code": "CSIQWsH", "name": "Novotel Suites" }, "geometry": { "type": "Point", "coordinates": [ 261258.150607597548515, 6252636.126124294474721 ] } },
{ "type": "Feature", "properties": { "PKID": 988, "phone_number": 4232831987, "area_code": "n1A3GWF", "name": "Hotel Providence" }, "geometry": { "type": "Point", "coordinates": [ 272502.440613519982435, 6246940.677475143224001 ] } },
{ "type": "Feature", "properties": { "PKID": 628, "phone_number": 3039739512, "area_code": "T7s8hsV", "name": "Porte de Vincennes" }, "geometry": { "type": "Point", "coordinates": [ 259698.258486209757393, 6250456.204879206605256 ] } },
{ "type": "Feature", "properties": { "PKID": 1282, "phone_number": 2820255571, "area_code": "Zx6N5LV", "name": "Gold Hotel Paris Montmartre" }, "geometry": { "type": "Point", "coordinates": [ 250397.830517675960436, 6250157.856178126297891 ] } },
{ "type": "Feature", "properties": { "PKID": 1514, "phone_number": 8594122746, "area_code": "7GJAnWY", "name": "Sookie" }, "geometry": { "type": "Point", "coordinates": [ 262312.747632831975352, 6245636.227627421729267 ] } },
{ "type": "Feature", "properties": { "PKID": 754, "phone_number": 7334343624, "area_code": "AvXJMpB", "name": "Royal Monceau  Raffles Pari" }, "geometry": { "type": "Point", "coordinates": [ 262389.695549759664573, 6254157.339151352643967 ] } },
{ "type": "Feature", "properties": { "PKID": 290, "phone_number": 6940606840, "area_code": "yZX1Yv0", "name": "Raspail Hotel" }, "geometry": { "type": "Point", "coordinates": [ 261201.636723777366569, 6251932.394729053601623 ] } },
{ "type": "Feature", "properties": { "PKID": 970, "phone_number": 3126138373, "area_code": "Cfnd7h5", "name": "Cactus" }, "geometry": { "type": "Point", "coordinates": [ 272067.246852028823923, 6246434.340736783109605 ] } },
{ "type": "Feature", "properties": { "PKID": 504, "phone_number": 7031736487, "area_code": "RzouxHu", "name": "Hotel Therèse" }, "geometry": { "type": "Point", "coordinates": [ 260846.51386189844925, 6252899.434827024117112 ] } },
{ "type": "Feature", "properties": { "PKID": 159, "phone_number": 5349201843, "area_code": "TqYgIaj", "name": "Hotel Bel Ami" }, "geometry": { "type": "Point", "coordinates": [ 260284.76192016308778, 6249974.184345808811486 ] } },
{ "type": "Feature", "properties": { "PKID": 1303, "phone_number": 4676118344, "area_code": "BOJMhoF", "name": "Hotel Edouard 7" }, "geometry": { "type": "Point", "coordinates": [ 264059.249739854712971, 6250571.563368424773216 ] } },
{ "type": "Feature", "properties": { "PKID": 1585, "phone_number": 2035447661, "area_code": "X8K4F3F", "name": "Hotel Terminus Orleans" }, "geometry": { "type": "Point", "coordinates": [ 263049.733245657989755, 6256412.374106996692717 ] } },
{ "type": "Feature", "properties": { "PKID": 1021, "phone_number": 2816515480, "area_code": "AajKLk0", "name": "Hotel Le M" }, "geometry": { "type": "Point", "coordinates": [ 258363.357098312029848, 6246762.392596114426851 ] } },
{ "type": "Feature", "properties": { "PKID": 668, "phone_number": 6091669690, "area_code": "BHi10BQ", "name": "L'Empire Paris" }, "geometry": { "type": "Point", "coordinates": [ 258900.100135256943759, 6252466.755496589466929 ] } },
{ "type": "Feature", "properties": { "PKID": 135, "phone_number": 8129304282, "area_code": "V17FpZ1", "name": "Ibis Paris Gare de l'Est" }, "geometry": { "type": "Point", "coordinates": [ 262119.971735063067172, 6250690.085638370364904 ] } },
{ "type": "Feature", "properties": { "PKID": 408, "phone_number": 5273459435, "area_code": "D4SIMG2", "name": "Le Pigalle" }, "geometry": { "type": "Point", "coordinates": [ 261353.720115036267089, 6250960.620177291333675 ] } },
{ "type": "Feature", "properties": { "PKID": 535, "phone_number": 7292586821, "area_code": "qUeOIUV", "name": "Wattignies Hotel" }, "geometry": { "type": "Point", "coordinates": [ 262798.359838885487989, 6248699.512204435653985 ] } },
{ "type": "Feature", "properties": { "PKID": 653, "phone_number": 9177459600, "area_code": "ywW6Xbr", "name": "Sainte-Beuve" }, "geometry": { "type": "Point", "coordinates": [ 260510.731155282468535, 6249868.7846724325791 ] } },
{ "type": "Feature", "properties": { "PKID": 145, "phone_number": 5100661030, "area_code": "jeEazmu", "name": "Hotel Novotel Paris Les Halles" }, "geometry": { "type": "Point", "coordinates": [ 261687.039627211051993, 6250321.320728911086917 ] } },
{ "type": "Feature", "properties": { "PKID": 661, "phone_number": 4966784465, "area_code": "fIQ4dci", "name": "Hotel du Roussillon" }, "geometry": { "type": "Point", "coordinates": [ 259979.841421303717652, 6249002.260525098070502 ] } },
{ "type": "Feature", "properties": { "PKID": 1335, "phone_number": 6794700901, "area_code": "j1GPugA", "name": "Champs-Élysees Plaza" }, "geometry": { "type": "Point", "coordinates": [ 263389.64162777288584, 6250034.908207975327969 ] } },
{ "type": "Feature", "properties": { "PKID": 401, "phone_number": 6289396869, "area_code": "5RWg5l4", "name": "Hotel transcontinental" }, "geometry": { "type": "Point", "coordinates": [ 261452.324646710098023, 6250296.204804147593677 ] } },
{ "type": "Feature", "properties": { "PKID": 39, "phone_number": 2236792373, "area_code": "fduOwZz", "name": "Hotel de Varenne" }, "geometry": { "type": "Point", "coordinates": [ 261229.473499191371957, 6250779.020324361510575 ] } },
{ "type": "Feature", "properties": { "PKID": 191, "phone_number": 9641002018, "area_code": "i75exJy", "name": "Hotel Citadines Bastille Gare de Lyon" }, "geometry": { "type": "Point", "coordinates": [ 259675.458736839122139, 6250693.401365783065557 ] } },
{ "type": "Feature", "properties": { "PKID": 446, "phone_number": 3225303410, "area_code": "aT1PXUX", "name": "Hotel de Belfort" }, "geometry": { "type": "Point", "coordinates": [ 259941.251756901707267, 6251800.310322317294776 ] } },
{ "type": "Feature", "properties": { "PKID": 991, "phone_number": 4040104079, "area_code": "IL6uPlQ", "name": "Novotel Paris Gare Montparnasse" }, "geometry": { "type": "Point", "coordinates": [ 273140.009171761572361, 6245548.640534368343651 ] } },
{ "type": "Feature", "properties": { "PKID": 995, "phone_number": 1352829557, "area_code": "QsitCpS", "name": "Riviera" }, "geometry": { "type": "Point", "coordinates": [ 272846.054379609820899, 6245407.828416356816888 ] } },
{ "type": "Feature", "properties": { "PKID": 77, "phone_number": 7760711051, "area_code": "qQgASk9", "name": "Coq Hotel" }, "geometry": { "type": "Point", "coordinates": [ 261064.671543753880542, 6250111.115217367187142 ] } },
{ "type": "Feature", "properties": { "PKID": 685, "phone_number": 9625354826, "area_code": "YrvXU8j", "name": "34B" }, "geometry": { "type": "Point", "coordinates": [ 263135.422906260588206, 6250966.620517825707793 ] } },
{ "type": "Feature", "properties": { "PKID": 1464, "phone_number": 9544382961, "area_code": "8DqNJlz", "name": "Hotel R de Paris" }, "geometry": { "type": "Point", "coordinates": [ 259717.07330303103663, 6250553.855381144210696 ] } },
{ "type": "Feature", "properties": { "PKID": 1171, "phone_number": 5189707385, "area_code": "LhBSY61", "name": "Ideal Hotel" }, "geometry": { "type": "Point", "coordinates": [ 258316.948081348702544, 6255817.88177268113941 ] } },
{ "type": "Feature", "properties": { "PKID": 505, "phone_number": 6788609344, "area_code": "Vjxje2L", "name": "Hotel Fertel Étoile" }, "geometry": { "type": "Point", "coordinates": [ 262209.067525761027355, 6249199.888354693539441 ] } },
{ "type": "Feature", "properties": { "PKID": 1528, "phone_number": 5039135021, "area_code": "zcICA8x", "name": "Hotel de la Paix" }, "geometry": { "type": "Point", "coordinates": [ 261727.807118868659018, 6246343.564352382905781 ] } },
{ "type": "Feature", "properties": { "PKID": 1174, "phone_number": 5307434704, "area_code": "rGK5qJU", "name": "Renoir" }, "geometry": { "type": "Point", "coordinates": [ 258293.007936540176161, 6254214.367989802733064 ] } },
{ "type": "Feature", "properties": { "PKID": 109, "phone_number": 8229277737, "area_code": "uRkw95X", "name": "Hotel De Clermont" }, "geometry": { "type": "Point", "coordinates": [ 259844.389944379363442, 6249797.135202786885202 ] } },
{ "type": "Feature", "properties": { "PKID": 1336, "phone_number": 3861151829, "area_code": "BqDSKc7", "name": "Porte de Vincennes" }, "geometry": { "type": "Point", "coordinates": [ 264124.372996001562569, 6249342.904433054849505 ] } },
{ "type": "Feature", "properties": { "PKID": 934, "phone_number": 6107152910, "area_code": "GpLIvEj", "name": "Auriane Porte de Versailles" }, "geometry": { "type": "Point", "coordinates": [ 259552.853623890288873, 6252269.513822498731315 ] } },
{ "type": "Feature", "properties": { "PKID": 1448, "phone_number": 6175409588, "area_code": "B3gjdux", "name": "Hotel Madrigal" }, "geometry": { "type": "Point", "coordinates": [ 259564.4110844853858, 6251246.201071901246905 ] } },
{ "type": "Feature", "properties": { "PKID": 1205, "phone_number": 4433036948, "area_code": "AWxdKkl", "name": "Avia Saphir Montparnasse" }, "geometry": { "type": "Point", "coordinates": [ 255277.165478672191966, 6248296.999806860461831 ] } },
{ "type": "Feature", "properties": { "PKID": 516, "phone_number": 3377342590, "area_code": "IV6AxoA", "name": "Windsor Opera" }, "geometry": { "type": "Point", "coordinates": [ 262501.766626210068353, 6251295.922160522080958 ] } },
{ "type": "Feature", "properties": { "PKID": 701, "phone_number": 1005316423, "area_code": "3UHiJ5D", "name": "Mercure Paris Monty Opera" }, "geometry": { "type": "Point", "coordinates": [ 261347.060810932365712, 6249265.278879442252219 ] } },
{ "type": "Feature", "properties": { "PKID": 1458, "phone_number": 9831201713, "area_code": "0LFCCgO", "name": "Ibis Paris Grands Boulevards Opera" }, "geometry": { "type": "Point", "coordinates": [ 259746.408922029106179, 6251238.122497324831784 ] } },
{ "type": "Feature", "properties": { "PKID": 38, "phone_number": 5226972956, "area_code": "ux2a9OR", "name": "Millesime" }, "geometry": { "type": "Point", "coordinates": [ 260709.858823772199685, 6250557.749421899206936 ] } },
{ "type": "Feature", "properties": { "PKID": 529, "phone_number": 8843376509, "area_code": "mJDBii2", "name": "Hotel Duquesne Eiffel" }, "geometry": { "type": "Point", "coordinates": [ 264144.945238593791146, 6250214.803731679916382 ] } },
{ "type": "Feature", "properties": { "PKID": 865, "phone_number": 2766769116, "area_code": "tvQdccU", "name": "Luxor Bastille Hotel" }, "geometry": { "type": "Point", "coordinates": [ 261530.163247439049883, 6251860.507725748233497 ] } },
{ "type": "Feature", "properties": { "PKID": 525, "phone_number": 9115325638, "area_code": "lreFOE8", "name": "Excelsior Batignolles" }, "geometry": { "type": "Point", "coordinates": [ 257656.192038800072623, 6251073.335564410313964 ] } },
{ "type": "Feature", "properties": { "PKID": 1185, "phone_number": 3076822663, "area_code": "J674ugd", "name": "Royal Residence" }, "geometry": { "type": "Point", "coordinates": [ 254640.001086433650926, 6248446.857830608263612 ] } },
{ "type": "Feature", "properties": { "PKID": 762, "phone_number": 5705987453, "area_code": "VPItX2x", "name": "Best Western" }, "geometry": { "type": "Point", "coordinates": [ 264979.588763123028912, 6252538.731287868693471 ] } },
{ "type": "Feature", "properties": { "PKID": 1298, "phone_number": 2488693593, "area_code": "qe0nH1O", "name": "Relais Saint-Jacques" }, "geometry": { "type": "Point", "coordinates": [ 264101.321831564884633, 6250484.729240178130567 ] } },
{ "type": "Feature", "properties": { "PKID": 1381, "phone_number": 2814176628, "area_code": "lAj1Ymo", "name": "Hotel Cecilia" }, "geometry": { "type": "Point", "coordinates": [ 265597.178672039706726, 6254663.597022921778262 ] } },
{ "type": "Feature", "properties": { "PKID": 786, "phone_number": 6430856939, "area_code": "EfdFVvw", "name": "Hotel Novotel Paris Tour Eiffel" }, "geometry": { "type": "Point", "coordinates": [ 258392.859237129392568, 6249890.409683827310801 ] } },
{ "type": "Feature", "properties": { "PKID": 1591, "phone_number": 9051393621, "area_code": "qh4K8Ve", "name": "Hotel Nord-Est" }, "geometry": { "type": "Point", "coordinates": [ 261968.820911536633503, 6255737.728217523545027 ] } },
{ "type": "Feature", "properties": { "PKID": 1197, "phone_number": 6072506163, "area_code": "1XqiJxm", "name": "Shangri-La Hotel" }, "geometry": { "type": "Point", "coordinates": [ 254763.023690323025221, 6247971.028698255307972 ] } },
{ "type": "Feature", "properties": { "PKID": 1220, "phone_number": 9682912881, "area_code": "huRSlYs", "name": "Le relais du Louvre" }, "geometry": { "type": "Point", "coordinates": [ 254193.037472808209714, 6247306.341200672090054 ] } },
{ "type": "Feature", "properties": { "PKID": 757, "phone_number": 9526201283, "area_code": "phjpW3E", "name": "Hotel Cluny Square" }, "geometry": { "type": "Point", "coordinates": [ 256954.612925721419742, 6252727.403555914759636 ] } },
{ "type": "Feature", "properties": { "PKID": 51, "phone_number": 5359065310, "area_code": "g9Qhtci", "name": "Mercure Paris Alesia" }, "geometry": { "type": "Point", "coordinates": [ 260384.791896508773789, 6250258.109103348106146 ] } },
{ "type": "Feature", "properties": { "PKID": 723, "phone_number": 2040206826, "area_code": "vTX8uwT", "name": "Marriott Opera Ambassador" }, "geometry": { "type": "Point", "coordinates": [ 257655.392701185250189, 6247510.278724807314575 ] } },
{ "type": "Feature", "properties": { "PKID": 1096, "phone_number": 1351603163, "area_code": "is6D0Yp", "name": "Étoile Saint-Ferdinand" }, "geometry": { "type": "Point", "coordinates": [ 255119.403362365148496, 6251978.679961021058261 ] } },
{ "type": "Feature", "properties": { "PKID": 20, "phone_number": 4852561162, "area_code": "PZb0n7x", "name": "Madison Hotel" }, "geometry": { "type": "Point", "coordinates": [ 260246.810003562743077, 6250983.054277858696878 ] } },
{ "type": "Feature", "properties": { "PKID": 14, "phone_number": 7914587721, "area_code": "CxhBNZ9", "name": "Hotel Ampère Paris" }, "geometry": { "type": "Point", "coordinates": [ 261306.599534857901745, 6251177.703339008614421 ] } },
{ "type": "Feature", "properties": { "PKID": 1383, "phone_number": 9784844654, "area_code": "3BiLln2", "name": "Hapimag Resort Paris" }, "geometry": { "type": "Point", "coordinates": [ 266469.830411723698489, 6255251.810486931353807 ] } },
{ "type": "Feature", "properties": { "PKID": 625, "phone_number": 3999153120, "area_code": "V1WKi7q", "name": "Villa Glamour" }, "geometry": { "type": "Point", "coordinates": [ 258658.478700783685781, 6250837.802682693116367 ] } },
{ "type": "Feature", "properties": { "PKID": 1301, "phone_number": 1391816187, "area_code": "AfPiDiX", "name": "Mercure Blanqui Place d'Italie" }, "geometry": { "type": "Point", "coordinates": [ 263419.128975681960583, 6249557.529513593763113 ] } },
{ "type": "Feature", "properties": { "PKID": 1052, "phone_number": 6214117300, "area_code": "hestwwu", "name": "Ariane Montparnasse" }, "geometry": { "type": "Point", "coordinates": [ 258508.642260106804315, 6246510.847097717225552 ] } },
{ "type": "Feature", "properties": { "PKID": 1017, "phone_number": 6428237126, "area_code": "arjt6wJ", "name": "Villa Luxembourg" }, "geometry": { "type": "Point", "coordinates": [ 258871.761334898910718, 6246546.747300261631608 ] } },
{ "type": "Feature", "properties": { "PKID": 382, "phone_number": 6430487097, "area_code": "1lxNTou", "name": "Malesherbes Hotel" }, "geometry": { "type": "Point", "coordinates": [ 258168.188378894294146, 6252386.839871406555176 ] } },
{ "type": "Feature", "properties": { "PKID": 162, "phone_number": 3255381951, "area_code": "K5Pd458", "name": "Hotel Victory Galou" }, "geometry": { "type": "Point", "coordinates": [ 261152.232769282330992, 6251689.273066371679306 ] } },
{ "type": "Feature", "properties": { "PKID": 733, "phone_number": 2918170213, "area_code": "PWCmBix", "name": "Hotel Caumartin Opera" }, "geometry": { "type": "Point", "coordinates": [ 257653.146505551791051, 6248562.844071292318404 ] } },
{ "type": "Feature", "properties": { "PKID": 268, "phone_number": 7404473389, "area_code": "6b2GcQc", "name": "Avenir Hotel" }, "geometry": { "type": "Point", "coordinates": [ 261551.227794326550793, 6250914.732670945115387 ] } },
{ "type": "Feature", "properties": { "PKID": 946, "phone_number": 8076368820, "area_code": "OIkw3Ss", "name": "Hotel du Jardin des Plantes" }, "geometry": { "type": "Point", "coordinates": [ 259843.250545378745301, 6250326.134821712970734 ] } },
{ "type": "Feature", "properties": { "PKID": 1548, "phone_number": 9607633726, "area_code": "TwubyCg", "name": "Hotel Bachaumont" }, "geometry": { "type": "Point", "coordinates": [ 263682.090197835175786, 6246634.39973228238523 ] } },
{ "type": "Feature", "properties": { "PKID": 425, "phone_number": 4080841241, "area_code": "0CfB34c", "name": "Hotel de la cite Rougemont" }, "geometry": { "type": "Point", "coordinates": [ 260986.185110296239145, 6251008.988422921858728 ] } },
{ "type": "Feature", "properties": { "PKID": 254, "phone_number": 9936392843, "area_code": "sYYPgyd", "name": "Hotel Le Mireille" }, "geometry": { "type": "Point", "coordinates": [ 261147.077823506871937, 6250858.423036121763289 ] } },
{ "type": "Feature", "properties": { "PKID": 1506, "phone_number": 5961620733, "area_code": "uQMox9i", "name": "Holiday Inn Garden Court : Paris-Auteuil" }, "geometry": { "type": "Point", "coordinates": [ 262931.035304804972839, 6245586.873033370822668 ] } },
{ "type": "Feature", "properties": { "PKID": 1070, "phone_number": 1277772596, "area_code": "bvIjgub", "name": "Libertel Gare de l'Est Français" }, "geometry": { "type": "Point", "coordinates": [ 254786.004875519429334, 6252508.507215470075607 ] } },
{ "type": "Feature", "properties": { "PKID": 783, "phone_number": 8015185370, "area_code": "3TvVpBU", "name": "Hotel Cluny Square" }, "geometry": { "type": "Point", "coordinates": [ 260691.38278292081668, 6250729.250950061716139 ] } },
{ "type": "Feature", "properties": { "PKID": 168, "phone_number": 3953879066, "area_code": "2Pi1hCw", "name": "Parisiana" }, "geometry": { "type": "Point", "coordinates": [ 262045.774619833217002, 6251276.605549100786448 ] } },
{ "type": "Feature", "properties": { "PKID": 838, "phone_number": 7524783887, "area_code": "GgZ6Nlk", "name": "Atlantic Hotel" }, "geometry": { "type": "Point", "coordinates": [ 262457.523038515995722, 6251778.689236010424793 ] } },
{ "type": "Feature", "properties": { "PKID": 511, "phone_number": 2435615450, "area_code": "fD5zAf3", "name": "Reims Hotel" }, "geometry": { "type": "Point", "coordinates": [ 264111.518734649231192, 6250669.568168100900948 ] } },
{ "type": "Feature", "properties": { "PKID": 1320, "phone_number": 9273782798, "area_code": "87mXWSk", "name": "Hotel Victoria Châtelet" }, "geometry": { "type": "Point", "coordinates": [ 263948.261470154218841, 6249814.008360607549548 ] } },
{ "type": "Feature", "properties": { "PKID": 419, "phone_number": 7025755109, "area_code": "52bLGNa", "name": "Hotel La Comtesse by Elegancia" }, "geometry": { "type": "Point", "coordinates": [ 259705.600256129953777, 6251936.407980353571475 ] } },
{ "type": "Feature", "properties": { "PKID": 1457, "phone_number": 5590727297, "area_code": "3fOW2nh", "name": "Molitor" }, "geometry": { "type": "Point", "coordinates": [ 259339.813127108383924, 6251025.280577572993934 ] } },
{ "type": "Feature", "properties": { "PKID": 947, "phone_number": 6673830804, "area_code": "9bKjAU7", "name": "Saint-Sebastien" }, "geometry": { "type": "Point", "coordinates": [ 255765.081804604153149, 6250199.064825589768589 ] } },
{ "type": "Feature", "properties": { "PKID": 1505, "phone_number": 5567239945, "area_code": "lw8oqck", "name": "Hotel Bastille Speria" }, "geometry": { "type": "Point", "coordinates": [ 262891.74276258458849, 6246191.607713521458209 ] } },
{ "type": "Feature", "properties": { "PKID": 1101, "phone_number": 2568597445, "area_code": "8KTW79Z", "name": "Eiffel Capitol" }, "geometry": { "type": "Point", "coordinates": [ 255061.597747097781394, 6251997.60413767490536 ] } },
{ "type": "Feature", "properties": { "PKID": 1106, "phone_number": 6108400689, "area_code": "fRMrUrQ", "name": "The Westin Paris" }, "geometry": { "type": "Point", "coordinates": [ 253878.806692267535254, 6252285.041902588680387 ] } },
{ "type": "Feature", "properties": { "PKID": 576, "phone_number": 4832310489, "area_code": "fTYuJG3", "name": "Novotel Paris Bercy" }, "geometry": { "type": "Point", "coordinates": [ 261061.299335871677613, 6249087.521886941045523 ] } },
{ "type": "Feature", "properties": { "PKID": 1304, "phone_number": 6547693776, "area_code": "LJD6zLa", "name": "Pley Hotel" }, "geometry": { "type": "Point", "coordinates": [ 263533.774510248447768, 6249679.152612499892712 ] } },
{ "type": "Feature", "properties": { "PKID": 968, "phone_number": 7794769075, "area_code": "TW1QVTV", "name": "L'Esperance" }, "geometry": { "type": "Point", "coordinates": [ 272582.978515930357389, 6246358.991953121498227 ] } },
{ "type": "Feature", "properties": { "PKID": 235, "phone_number": 2077091637, "area_code": "ui3F9w7", "name": "K+K Hotel Cayre" }, "geometry": { "type": "Point", "coordinates": [ 259753.514230713946745, 6251142.486528850160539 ] } },
{ "type": "Feature", "properties": { "PKID": 449, "phone_number": 2726758777, "area_code": "dh67HoB", "name": "Hotel Exe Paris Centre" }, "geometry": { "type": "Point", "coordinates": [ 260785.801382438367, 6250322.743029024451971 ] } },
{ "type": "Feature", "properties": { "PKID": 892, "phone_number": 2458040253, "area_code": "XuXZvWf", "name": "Novotel" }, "geometry": { "type": "Point", "coordinates": [ 258175.76001518391422, 6251888.795666947960854 ] } },
{ "type": "Feature", "properties": { "PKID": 1330, "phone_number": 4298372527, "area_code": "Cy3OaWL", "name": "Hotel du Brabant" }, "geometry": { "type": "Point", "coordinates": [ 263672.566612437833101, 6248802.121598149649799 ] } },
{ "type": "Feature", "properties": { "PKID": 888, "phone_number": 3587274465, "area_code": "ANrABYQ", "name": "Hotel Acropole" }, "geometry": { "type": "Point", "coordinates": [ 262696.034203087445349, 6247311.766256351023912 ] } },
{ "type": "Feature", "properties": { "PKID": 1111, "phone_number": 2835047701, "area_code": "hpb7FxW", "name": "Hotel du parc" }, "geometry": { "type": "Point", "coordinates": [ 254816.156681704713264, 6252171.225984004326165 ] } },
{ "type": "Feature", "properties": { "PKID": 503, "phone_number": 8371610682, "area_code": "0pIFBVH", "name": "Home Moderne" }, "geometry": { "type": "Point", "coordinates": [ 260739.747843987075612, 6251092.546212892048061 ] } },
{ "type": "Feature", "properties": { "PKID": 56, "phone_number": 4200853635, "area_code": "CEbBTNE", "name": "Citadines - Republique" }, "geometry": { "type": "Point", "coordinates": [ 261368.389152215124341, 6251111.122981786727905 ] } },
{ "type": "Feature", "properties": { "PKID": 192, "phone_number": 8449711105, "area_code": "hg7COgQ", "name": "Hotel Balagny" }, "geometry": { "type": "Point", "coordinates": [ 261404.202969268022571, 6249993.079146310687065 ] } },
{ "type": "Feature", "properties": { "PKID": 1008, "phone_number": 6026766965, "area_code": "ZFBu5fe", "name": "Jack's" }, "geometry": { "type": "Point", "coordinates": [ 272021.706413364445325, 6245906.302461015060544 ] } },
{ "type": "Feature", "properties": { "PKID": 25, "phone_number": 2426429488, "area_code": "zaehXuZ", "name": "Hipotel Buttes-Chaumont Pyrenees" }, "geometry": { "type": "Point", "coordinates": [ 261150.470873970509274, 6250732.738902295939624 ] } },
{ "type": "Feature", "properties": { "PKID": 746, "phone_number": 9278383748, "area_code": "4IFXdR7", "name": "Hotel des Academies" }, "geometry": { "type": "Point", "coordinates": [ 258128.006746333529009, 6252816.01532263495028 ] } },
{ "type": "Feature", "properties": { "PKID": 1360, "phone_number": 7457085165, "area_code": "jRQc30l", "name": "Hotel Waldorf" }, "geometry": { "type": "Point", "coordinates": [ 266762.333624398568645, 6253356.709569201804698 ] } },
{ "type": "Feature", "properties": { "PKID": 983, "phone_number": 6374954129, "area_code": "j8QEkTz", "name": "Hotel Acte V" }, "geometry": { "type": "Point", "coordinates": [ 271903.884770078642759, 6246441.595156689174473 ] } },
{ "type": "Feature", "properties": { "PKID": 820, "phone_number": 7621162394, "area_code": "Jkxoa3p", "name": "Motel One" }, "geometry": { "type": "Point", "coordinates": [ 259589.562379819282796, 6249239.825497411191463 ] } },
{ "type": "Feature", "properties": { "PKID": 1551, "phone_number": 8912744635, "area_code": "6X2sMN7", "name": "Celeste" }, "geometry": { "type": "Point", "coordinates": [ 261961.231736397865461, 6247562.670881297439337 ] } },
{ "type": "Feature", "properties": { "PKID": 1284, "phone_number": 6023419971, "area_code": "DDgbVTK", "name": "Hotel Balzac" }, "geometry": { "type": "Point", "coordinates": [ 263470.615548672154546, 6249926.042972592636943 ] } },
{ "type": "Feature", "properties": { "PKID": 944, "phone_number": 7162653136, "area_code": "EJD0Dfq", "name": "Hotel Botaniste" }, "geometry": { "type": "Point", "coordinates": [ 258853.407634537492413, 6244549.73999750521034 ] } },
{ "type": "Feature", "properties": { "PKID": 309, "phone_number": 9383882488, "area_code": "N9rqKBT", "name": "Aparthotel Adagio Paris Opera" }, "geometry": { "type": "Point", "coordinates": [ 259348.948949442332378, 6250700.394577832892537 ] } },
{ "type": "Feature", "properties": { "PKID": 501, "phone_number": 3341769010, "area_code": "Wjbm8Ni", "name": "Hotel Derby Eiffel" }, "geometry": { "type": "Point", "coordinates": [ 259263.169662686850643, 6252199.543204902671278 ] } },
{ "type": "Feature", "properties": { "PKID": 1160, "phone_number": 7884398568, "area_code": "WOTgvwo", "name": "Les Trois Collèges" }, "geometry": { "type": "Point", "coordinates": [ 258613.56783499600715, 6255156.898973086848855 ] } },
{ "type": "Feature", "properties": { "PKID": 394, "phone_number": 2122513542, "area_code": "8AGtOix", "name": "R.Kipling Hotel" }, "geometry": { "type": "Point", "coordinates": [ 260411.656071030738531, 6250304.957515704445541 ] } },
{ "type": "Feature", "properties": { "PKID": 1392, "phone_number": 2436776163, "area_code": "2GHyMp7", "name": "Ibis Styles Paris Nation Cours de Vincennes" }, "geometry": { "type": "Point", "coordinates": [ 267691.431632952939253, 6248298.853019153699279 ] } },
{ "type": "Feature", "properties": { "PKID": 952, "phone_number": 3287535322, "area_code": "cfMG5FU", "name": "Hotel Grand Amour" }, "geometry": { "type": "Point", "coordinates": [ 265909.280340931902174, 6252850.628026416525245 ] } },
{ "type": "Feature", "properties": { "PKID": 1162, "phone_number": 9801254924, "area_code": "nX3l7Yq", "name": "Hotel la Residence du Roy" }, "geometry": { "type": "Point", "coordinates": [ 258843.406555457913782, 6255902.755028997547925 ] } },
{ "type": "Feature", "properties": { "PKID": 1317, "phone_number": 1691708765, "area_code": "DFd3Yso", "name": "Hotel Bradford Elysees - Astotel" }, "geometry": { "type": "Point", "coordinates": [ 264398.347055902355351, 6249290.186415698379278 ] } },
{ "type": "Feature", "properties": { "PKID": 579, "phone_number": 1076617730, "area_code": "NmzBJWS", "name": "Hotel du Globe" }, "geometry": { "type": "Point", "coordinates": [ 261750.775455520488322, 6251011.314988081343472 ] } },
{ "type": "Feature", "properties": { "PKID": 187, "phone_number": 4456182674, "area_code": "PC35rPh", "name": "Hotel du Plat d'Étain" }, "geometry": { "type": "Point", "coordinates": [ 260931.452061734395102, 6249261.233758794143796 ] } },
{ "type": "Feature", "properties": { "PKID": 1287, "phone_number": 6343112462, "area_code": "1btL6bd", "name": "My Home in Paris" }, "geometry": { "type": "Point", "coordinates": [ 263590.757318870804738, 6250147.899898821488023 ] } },
{ "type": "Feature", "properties": { "PKID": 1230, "phone_number": 5491799700, "area_code": "ZNjYUFz", "name": "Hotel Notre-Dame" }, "geometry": { "type": "Point", "coordinates": [ 249934.939493489742745, 6250684.627008082345128 ] } },
{ "type": "Feature", "properties": { "PKID": 140, "phone_number": 3871706394, "area_code": "vpAur4F", "name": "Hotel de Banville" }, "geometry": { "type": "Point", "coordinates": [ 260241.432315358571941, 6251016.268502591177821 ] } },
{ "type": "Feature", "properties": { "PKID": 1564, "phone_number": 5579657875, "area_code": "HNioMOf", "name": "Residence Blanche" }, "geometry": { "type": "Point", "coordinates": [ 262724.411841893510427, 6255546.483729773201048 ] } },
{ "type": "Feature", "properties": { "PKID": 227, "phone_number": 6305909207, "area_code": "LB3SqXA", "name": "Hotel Montparnasse Alesia" }, "geometry": { "type": "Point", "coordinates": [ 261177.728063710499555, 6250276.848360193893313 ] } },
{ "type": "Feature", "properties": { "PKID": 76, "phone_number": 8735819053, "area_code": "nHyRBub", "name": "Hotel Virgina" }, "geometry": { "type": "Point", "coordinates": [ 261439.041846466774587, 6250529.748033678159118 ] } },
{ "type": "Feature", "properties": { "PKID": 798, "phone_number": 1918090074, "area_code": "TMqJBBe", "name": "Orion Paris Haussmann" }, "geometry": { "type": "Point", "coordinates": [ 261120.569516820134595, 6248317.826181696727872 ] } },
{ "type": "Feature", "properties": { "PKID": 1198, "phone_number": 5491132909, "area_code": "CEqEVaI", "name": "Hotel Baudin" }, "geometry": { "type": "Point", "coordinates": [ 253992.638018482044572, 6247706.759550641290843 ] } },
{ "type": "Feature", "properties": { "PKID": 1584, "phone_number": 5043255040, "area_code": "ENMyFyN", "name": "Villa Luxembourg" }, "geometry": { "type": "Point", "coordinates": [ 262706.946344165597111, 6256761.970309928059578 ] } },
{ "type": "Feature", "properties": { "PKID": 1251, "phone_number": 9932842949, "area_code": "K5jsaOM", "name": "First Hotel" }, "geometry": { "type": "Point", "coordinates": [ 250889.366888235992519, 6251279.231678930111229 ] } },
{ "type": "Feature", "properties": { "PKID": 297, "phone_number": 5487389532, "area_code": "2LCYjYd", "name": "Classics Hotel" }, "geometry": { "type": "Point", "coordinates": [ 261419.937909056461649, 6253089.944936434738338 ] } },
{ "type": "Feature", "properties": { "PKID": 874, "phone_number": 9138316744, "area_code": "1prfSG0", "name": "Hotel Henriette Rive Gauche" }, "geometry": { "type": "Point", "coordinates": [ 257861.947956123010954, 6251501.43638014793396 ] } },
{ "type": "Feature", "properties": { "PKID": 189, "phone_number": 4054642505, "area_code": "DkufKlZ", "name": "Hotel Vintimille" }, "geometry": { "type": "Point", "coordinates": [ 259835.576738340663724, 6249715.694596726447344 ] } },
{ "type": "Feature", "properties": { "PKID": 937, "phone_number": 3908126076, "area_code": "nXcK3yc", "name": "Hotel du Plat d'Étain" }, "geometry": { "type": "Point", "coordinates": [ 260304.943928245920688, 6249450.060215386562049 ] } },
{ "type": "Feature", "properties": { "PKID": 631, "phone_number": 6542264672, "area_code": "7yF0fHp", "name": "Hotel Cluny-Sorbonne" }, "geometry": { "type": "Point", "coordinates": [ 260702.01971885873354, 6250491.724651282653213 ] } },
{ "type": "Feature", "properties": { "PKID": 1109, "phone_number": 6355246671, "area_code": "3QgvDQ7", "name": "Hotel France Albion" }, "geometry": { "type": "Point", "coordinates": [ 255726.511283914325759, 6251750.139626145362854 ] } },
{ "type": "Feature", "properties": { "PKID": 1191, "phone_number": 5142482052, "area_code": "5KxbgCi", "name": "Hotel marais bastille" }, "geometry": { "type": "Point", "coordinates": [ 254808.938065667985938, 6247940.710811490193009 ] } },
{ "type": "Feature", "properties": { "PKID": 931, "phone_number": 1755907494, "area_code": "ZwU7bE5", "name": "Hotel Lautrec Opera" }, "geometry": { "type": "Point", "coordinates": [ 258952.422098267968977, 6252294.615350158885121 ] } },
{ "type": "Feature", "properties": { "PKID": 744, "phone_number": 2065407103, "area_code": "QZSFr98", "name": "Hotel Floridor Étoile" }, "geometry": { "type": "Point", "coordinates": [ 261217.761154975712998, 6249091.454654356464744 ] } },
{ "type": "Feature", "properties": { "PKID": 259, "phone_number": 4900367466, "area_code": "wk7JoNh", "name": "Alexandrine Opera" }, "geometry": { "type": "Point", "coordinates": [ 261211.03271124328603, 6251711.782577805221081 ] } },
{ "type": "Feature", "properties": { "PKID": 949, "phone_number": 8201895554, "area_code": "HcRH3zf", "name": "Hotel Grand Amour" }, "geometry": { "type": "Point", "coordinates": [ 263554.03115499712294, 6247997.055181553587317 ] } },
{ "type": "Feature", "properties": { "PKID": 1586, "phone_number": 2428662131, "area_code": "u8dHjFX", "name": "Pavillon de Montmartre" }, "geometry": { "type": "Point", "coordinates": [ 263628.916892536741216, 6255026.233921498991549 ] } },
{ "type": "Feature", "properties": { "PKID": 785, "phone_number": 4796855324, "area_code": "ghqCFuh", "name": "Hotel France Albion" }, "geometry": { "type": "Point", "coordinates": [ 260336.546077128848992, 6250544.036741239950061 ] } },
{ "type": "Feature", "properties": { "PKID": 1374, "phone_number": 8031422114, "area_code": "KZhfTTJ", "name": "Hotel Beaubourg" }, "geometry": { "type": "Point", "coordinates": [ 266224.761023833649233, 6252234.63241451792419 ] } },
{ "type": "Feature", "properties": { "PKID": 568, "phone_number": 5511571524, "area_code": "X7MwFba", "name": "Hotel Marquis" }, "geometry": { "type": "Point", "coordinates": [ 259694.286694233771414, 6253049.00612385571003 ] } },
{ "type": "Feature", "properties": { "PKID": 119, "phone_number": 9032379460, "area_code": "6R97Qxm", "name": "Maitre Albert B&B" }, "geometry": { "type": "Point", "coordinates": [ 261697.792408853012603, 6250166.33502331096679 ] } },
{ "type": "Feature", "properties": { "PKID": 456, "phone_number": 6693668434, "area_code": "c32gKpg", "name": "Relais Christine" }, "geometry": { "type": "Point", "coordinates": [ 260019.816407644451829, 6251459.014303471893072 ] } },
{ "type": "Feature", "properties": { "PKID": 1530, "phone_number": 3778074744, "area_code": "oQ0AGTE", "name": "Hotel Pont Royal" }, "geometry": { "type": "Point", "coordinates": [ 263419.067015717912, 6246049.480262494646013 ] } },
{ "type": "Feature", "properties": { "PKID": 327, "phone_number": 4640985780, "area_code": "mbQXhlY", "name": "Le Presbytère" }, "geometry": { "type": "Point", "coordinates": [ 261114.689465278876014, 6249242.99417782574892 ] } },
{ "type": "Feature", "properties": { "PKID": 412, "phone_number": 5332194518, "area_code": "pTfSnKH", "name": "Hotel d'Amiens" }, "geometry": { "type": "Point", "coordinates": [ 261107.518621238181368, 6250599.95305453799665 ] } },
{ "type": "Feature", "properties": { "PKID": 1013, "phone_number": 8863337528, "area_code": "IS2MGN3", "name": "Hotel Paris Le Marquis Eiffel" }, "geometry": { "type": "Point", "coordinates": [ 271421.939997385838069, 6246273.000458576716483 ] } },
{ "type": "Feature", "properties": { "PKID": 1445, "phone_number": 2984489369, "area_code": "tpQTTTA", "name": "Paris Montmartre Hotel" }, "geometry": { "type": "Point", "coordinates": [ 267355.453750511398539, 6248559.949226912111044 ] } },
{ "type": "Feature", "properties": { "PKID": 1122, "phone_number": 5643354137, "area_code": "UUP2EYw", "name": "Best Western" }, "geometry": { "type": "Point", "coordinates": [ 257953.77074403304141, 6255657.265407046303153 ] } },
{ "type": "Feature", "properties": { "PKID": 101, "phone_number": 1048551632, "area_code": "pieXBZx", "name": "Élysee" }, "geometry": { "type": "Point", "coordinates": [ 259625.367163190239808, 6250051.10411190148443 ] } },
{ "type": "Feature", "properties": { "PKID": 147, "phone_number": 5307769007, "area_code": "woU7iVG", "name": "Le Lionceau" }, "geometry": { "type": "Point", "coordinates": [ 261831.2338131335855, 6251589.928732804954052 ] } },
{ "type": "Feature", "properties": { "PKID": 490, "phone_number": 3879848969, "area_code": "sQgxln5", "name": "Hotel de Roubaix" }, "geometry": { "type": "Point", "coordinates": [ 259552.973678046400892, 6253497.887979603372514 ] } },
{ "type": "Feature", "properties": { "PKID": 1256, "phone_number": 6916617278, "area_code": "sZ54qOe", "name": "Hotel Élysees 8" }, "geometry": { "type": "Point", "coordinates": [ 251544.511773760983488, 6251858.182509513571858 ] } },
{ "type": "Feature", "properties": { "PKID": 963, "phone_number": 1643029914, "area_code": "vYeI21p", "name": "The valley off" }, "geometry": { "type": "Point", "coordinates": [ 271714.869921885197982, 6246371.651071249507368 ] } },
{ "type": "Feature", "properties": { "PKID": 1502, "phone_number": 7609188737, "area_code": "Scs7kHJ", "name": "Trianon Rive gauche" }, "geometry": { "type": "Point", "coordinates": [ 262873.271087535889819, 6245734.720673476345837 ] } },
{ "type": "Feature", "properties": { "PKID": 684, "phone_number": 7113753393, "area_code": "hZm2joV", "name": "Hotel Avenir Montmartre" }, "geometry": { "type": "Point", "coordinates": [ 257289.120482125756098, 6248263.884399628266692 ] } },
{ "type": "Feature", "properties": { "PKID": 129, "phone_number": 8520697568, "area_code": "iDMgfhk", "name": "Madrid Opera" }, "geometry": { "type": "Point", "coordinates": [ 261935.79221816023346, 6251599.323676123283803 ] } },
{ "type": "Feature", "properties": { "PKID": 1316, "phone_number": 1335092078, "area_code": "Ujf4hvp", "name": "Hotel Ibis Budget" }, "geometry": { "type": "Point", "coordinates": [ 264796.57005880062934, 6249887.785802275873721 ] } },
{ "type": "Feature", "properties": { "PKID": 1387, "phone_number": 7583661683, "area_code": "ggMdtnL", "name": "Shangri-La Hotel" }, "geometry": { "type": "Point", "coordinates": [ 266687.938173413509503, 6252608.934188081882894 ] } },
{ "type": "Feature", "properties": { "PKID": 904, "phone_number": 6961843806, "area_code": "7o0Pczw", "name": "Hotel de la Place des Vosges" }, "geometry": { "type": "Point", "coordinates": [ 263243.15634727710858, 6249557.128298400901258 ] } },
{ "type": "Feature", "properties": { "PKID": 828, "phone_number": 3435140733, "area_code": "7Yuzp51", "name": "Hotel-Residence de la Mare" }, "geometry": { "type": "Point", "coordinates": [ 260681.969303091900656, 6249453.047444224357605 ] } },
{ "type": "Feature", "properties": { "PKID": 133, "phone_number": 4224492396, "area_code": "GS3RDRe", "name": "Renoir" }, "geometry": { "type": "Point", "coordinates": [ 260248.297385906858835, 6249433.784968312829733 ] } },
{ "type": "Feature", "properties": { "PKID": 964, "phone_number": 6561781146, "area_code": "yWFrzy5", "name": "La Clef Tour Eiffel" }, "geometry": { "type": "Point", "coordinates": [ 272189.305341624363791, 6246498.161399450153112 ] } },
{ "type": "Feature", "properties": { "PKID": 1307, "phone_number": 2510812924, "area_code": "4Ti4IcW", "name": "Hotel Molière" }, "geometry": { "type": "Point", "coordinates": [ 263851.926229695091024, 6250153.491801986470819 ] } },
{ "type": "Feature", "properties": { "PKID": 1496, "phone_number": 6685316400, "area_code": "5LCVBWs", "name": "Hotel de l'Avenue" }, "geometry": { "type": "Point", "coordinates": [ 259997.397049211693229, 6251080.863620203919709 ] } },
{ "type": "Feature", "properties": { "PKID": 439, "phone_number": 6141622658, "area_code": "pG9nUKu", "name": "Hotel Sofitel Le Faubourg" }, "geometry": { "type": "Point", "coordinates": [ 260964.11760047628195, 6252092.25685643684119 ] } },
{ "type": "Feature", "properties": { "PKID": 1534, "phone_number": 9703442732, "area_code": "o7Z86xt", "name": "Best Western Plus La Demeure" }, "geometry": { "type": "Point", "coordinates": [ 263461.20490916701965, 6245108.108639817684889 ] } },
{ "type": "Feature", "properties": { "PKID": 840, "phone_number": 2749264629, "area_code": "tkWeeYN", "name": "Hilton Garden Inn Paris La Villette" }, "geometry": { "type": "Point", "coordinates": [ 261378.834845514938934, 6248978.311989480629563 ] } },
{ "type": "Feature", "properties": { "PKID": 264, "phone_number": 7450924892, "area_code": "dsTkG0y", "name": "Hotel Cornet" }, "geometry": { "type": "Point", "coordinates": [ 260381.065587273653364, 6249734.064423020929098 ] } },
{ "type": "Feature", "properties": { "PKID": 405, "phone_number": 3360891803, "area_code": "ydqiqch", "name": "Royal Saint-Michel" }, "geometry": { "type": "Point", "coordinates": [ 261478.087525385722984, 6251232.93663685861975 ] } },
{ "type": "Feature", "properties": { "PKID": 954, "phone_number": 7944961692, "area_code": "KxI3vAM", "name": "Hotel du Parc Saint-Severin" }, "geometry": { "type": "Point", "coordinates": [ 264053.060865717707202, 6257380.552665941417217 ] } },
{ "type": "Feature", "properties": { "PKID": 1479, "phone_number": 8231383734, "area_code": "3c6xvHX", "name": "Hotel de la Paix" }, "geometry": { "type": "Point", "coordinates": [ 259152.836041789269075, 6249873.383063131012022 ] } },
{ "type": "Feature", "properties": { "PKID": 532, "phone_number": 8960625523, "area_code": "oPGKp7g", "name": "Hotel Clairefontaine" }, "geometry": { "type": "Point", "coordinates": [ 261410.529962602973683, 6252102.584777195006609 ] } },
{ "type": "Feature", "properties": { "PKID": 1598, "phone_number": 1167268907, "area_code": "rIqXUZD", "name": "Grand Hotel Leveque" }, "geometry": { "type": "Point", "coordinates": [ 262523.649143855844159, 6255558.957176220603287 ] } },
{ "type": "Feature", "properties": { "PKID": 730, "phone_number": 9486169678, "area_code": "G5SeMSB", "name": "Le 74" }, "geometry": { "type": "Point", "coordinates": [ 262948.473071632441133, 6248846.727689391933382 ] } },
{ "type": "Feature", "properties": { "PKID": 1309, "phone_number": 3217237231, "area_code": "Iwuuj2g", "name": "Citadines - Republique" }, "geometry": { "type": "Point", "coordinates": [ 263611.970202889642678, 6249748.885483062826097 ] } },
{ "type": "Feature", "properties": { "PKID": 1338, "phone_number": 1434631744, "area_code": "wVxBOiX", "name": "Maison Astor Paris, Curio Collection by Hilton" }, "geometry": { "type": "Point", "coordinates": [ 266589.438720291480422, 6253850.492343237623572 ] } },
{ "type": "Feature", "properties": { "PKID": 158, "phone_number": 8592102584, "area_code": "Gf5UzqQ", "name": "Le Royal" }, "geometry": { "type": "Point", "coordinates": [ 261252.899805383116473, 6252113.308711405843496 ] } },
{ "type": "Feature", "properties": { "PKID": 4, "phone_number": 3374528688, "area_code": "4G9QXDp", "name": "Hotel de Berri Champs-Élysees, a Luxury Collection Hotel" }, "geometry": { "type": "Point", "coordinates": [ 260992.379088786052307, 6250517.966946157626808 ] } },
{ "type": "Feature", "properties": { "PKID": 18, "phone_number": 4419497266, "area_code": "dADqjdu", "name": "New Orient Hotel" }, "geometry": { "type": "Point", "coordinates": [ 261034.087083363410784, 6250720.073241052217782 ] } },
{ "type": "Feature", "properties": { "PKID": 620, "phone_number": 1434990091, "area_code": "eiFIta0", "name": "Mama Shelter Paris West" }, "geometry": { "type": "Point", "coordinates": [ 260957.874188186775427, 6249637.040511672385037 ] } },
{ "type": "Feature", "properties": { "PKID": 374, "phone_number": 8559188202, "area_code": "Ynxv716", "name": "Les Deux Girafes" }, "geometry": { "type": "Point", "coordinates": [ 257437.63174071998219, 6252429.543353374116123 ] } },
{ "type": "Feature", "properties": { "PKID": 1466, "phone_number": 5900492825, "area_code": "zCE3avO", "name": "Pavillon Nation" }, "geometry": { "type": "Point", "coordinates": [ 259732.050124245637562, 6250384.553518760018051 ] } },
{ "type": "Feature", "properties": { "PKID": 804, "phone_number": 7145505812, "area_code": "ATw4m9Q", "name": "Hotel Auguste" }, "geometry": { "type": "Point", "coordinates": [ 260346.31912073053536, 6251861.992158215492964 ] } },
{ "type": "Feature", "properties": { "PKID": 896, "phone_number": 1434921903, "area_code": "h7sugnc", "name": "Hotel Edouard 7" }, "geometry": { "type": "Point", "coordinates": [ 261706.543271807749989, 6246010.76777287106961 ] } },
{ "type": "Feature", "properties": { "PKID": 1238, "phone_number": 6125006067, "area_code": "ih1whdv", "name": "Hotel Pacific" }, "geometry": { "type": "Point", "coordinates": [ 250208.823508719913661, 6251499.585247591137886 ] } }
]
}
